{"type": "FeatureCollection", "features": [{"type": "Feature", "geometry": {"type": "LineString", "coordinates": [[565082.5098509558, 5949527.730061239], [565082.5891865296, 5949528.67696611], [565084.2696648414, 5949548.47315233], [565086.9454049832, 5949575.081808226], [565093.043643405, 5949616.826296116], [565097.7955334097, 5949638.968394202], [565102.3827944042, 5949658.215164201], [565111.6848184216, 5949694.173506334], [565118.3453078765, 5949715.35179046], [565125.7743824443, 5949737.297393155], [565134.6482994526, 5949759.819413405], [565144.0429093798, 5949783.361247276], [565146.2168928888, 5949788.031428382], [565150.2055875339, 5949796.610163152], [565155.7332359316, 5949808.503891567], [565168.6677284528, 5949834.876697933], [565184.0370903957, 5949861.383498817], [565200.3336592277, 5949888.637624058]]}, "properties": {"electrified": "rail", "frequency": "0", "gauge": "1435", "maxspeed": "80", "network": "HVV", "railway": "subway", "voltage": "750", "osm_id": 23712918, "tile_500": "NO_E565000_N5949500_500", "tile_250": "NO_E565000_N5949500_250"}}, {"type": "Feature", "geometry": {"type": "LineString", "coordinates": [[566819.303896383, 5948082.793856909], [566834.359909435, 5948074.929737687]]}, "properties": {"bridge": "yes", "electrified": "rail", "frequency": "0", "gauge": "1435", "layer": "1", "level": "1", "network": "HVV", "railway": "subway", "voltage": "750", "osm_id": 25903960, "tile_500": "NO_E566500_N5948000_500", "tile_250": "NO_E566750_N5948000_250"}}, {"type": "Feature", "geometry": {"type": "LineString", "coordinates": [[566266.1422355172, 5948177.816421477], [566293.5131672767, 5948183.866398594], [566319.9571554046, 5948192.395931084], [566330.5653027548, 5948196.262205901], [566350.4826860456, 5948201.940208503], [566378.288994229, 5948206.6170677645], [566417.5212220029, 5948213.84799663], [566429.7515904746, 5948215.578769248], [566446.857272946, 5948217.322909546]]}, "properties": {"gauge": "1435", "railway": "subway", "service": "crossover", "osm_id": 25903966, "tile_500": "NO_E566000_N5948000_500", "tile_250": "NO_E566250_N5948000_250"}}, {"type": "Feature", "geometry": {"type": "LineString", "coordinates": [[566440.3525013509, 5948174.179890253], [566474.8660996548, 5948168.470415971], [566702.4333888224, 5948131.171589731]]}, "properties": {"gauge": "1435", "railway": "subway", "railway:track_ref": "21", "service": "yard", "osm_id": 25903967, "tile_500": "NO_E566500_N5948000_500", "tile_250": "NO_E566500_N5948000_250"}}, {"type": "Feature", "geometry": {"type": "LineString", "coordinates": [[566416.9723685621, 5948183.0513759935], [566434.0587206238, 5948179.164848961], [566475.4976084963, 5948172.396116123], [566681.811228588, 5948138.3784832], [566689.3133734126, 5948137.183119502]]}, "properties": {"gauge": "1435", "railway": "subway", "railway:track_ref": "22", "service": "yard", "osm_id": 25903969, "tile_500": "NO_E566500_N5948000_500", "tile_250": "NO_E566500_N5948000_250"}}, {"type": "Feature", "geometry": {"type": "LineString", "coordinates": [[566268.3318289545, 5948195.405965184], [566291.8771221188, 5948197.273783872], [566330.5653027548, 5948196.262205901], [566342.0765549823, 5948196.057594241], [566366.6481140163, 5948195.425546485]]}, "properties": {"gauge": "1435", "railway": "subway", "service": "crossover", "osm_id": 25903971, "tile_500": "NO_E566000_N5948000_500", "tile_250": "NO_E566250_N5948000_250"}}, {"type": "Feature", "geometry": {"type": "LineString", "coordinates": [[566319.9571554046, 5948192.395931084], [566330.451256524, 5948194.046290777], [566342.0765549823, 5948196.057594241], [566364.6103106067, 5948199.380275174]]}, "properties": {"gauge": "1435", "railway": "subway", "service": "yard", "osm_id": 25903982, "tile_500": "NO_E566000_N5948000_500", "tile_250": "NO_E566250_N5948000_250"}}, {"type": "Feature", "geometry": {"type": "LineString", "coordinates": [[566085.9489733748, 5948150.797823196], [566039.7618588901, 5948148.545868084], [566017.9850977298, 5948147.739002627], [565991.2347606124, 5948144.50340186], [565964.5262052859, 5948135.938641685], [565962.733036108, 5948135.668660755], [565834.6245987812, 5948116.51290841], [565820.6612954035, 5948114.4255962325]]}, "properties": {"gauge": "1435", "railway": "subway", "service": "yard", "osm_id": 25904008, "tile_500": "NO_E565500_N5948000_500", "tile_250": "NO_E565750_N5948000_250"}}, {"type": "Feature", "geometry": {"type": "LineString", "coordinates": [[566016.0008011772, 5948152.607053997], [565985.1439547166, 5948147.299757556], [565961.3194826823, 5948143.649221254], [565835.0306479905, 5948124.30759201], [565823.3952577865, 5948122.519953035]]}, "properties": {"gauge": "1435", "railway": "subway", "service": "yard", "osm_id": 25904011, "tile_500": "NO_E565500_N5948000_500", "tile_250": "NO_E565750_N5948000_250"}}, {"type": "Feature", "geometry": {"type": "LineString", "coordinates": [[566048.6240553916, 5948161.021613128], [566016.0008011772, 5948152.607053997], [566002.6445277912, 5948148.235538057], [565991.2347606124, 5948144.50340186], [565963.9473679184, 5948139.9919177415], [565962.0423811709, 5948139.686985212], [565823.4610516885, 5948117.825225843], [565792.499589132, 5948114.298078995], [565763.266470576, 5948113.310067276], [565715.3721948632, 5948118.30342254], [565705.9640472531, 5948119.284511192]]}, "properties": {"gauge": "1435", "railway": "subway", "service": "yard", "osm_id": 25904012, "tile_500": "NO_E565500_N5948000_500", "tile_250": "NO_E565750_N5948000_250"}}, {"type": "Feature", "geometry": {"type": "LineString", "coordinates": [[565132.663866027, 5948683.543914225], [565134.1121379385, 5948670.567542352], [565137.9487899236, 5948631.130661571], [565144.951052781, 5948601.117847119], [565153.4798140342, 5948573.451785699], [565167.2412280315, 5948540.97354855], [565191.2392861944, 5948495.841267795], [565220.5157373272, 5948446.921298296], [565251.3523300451, 5948397.489077074], [565256.0735077106, 5948389.086946621], [565262.8744799263, 5948376.963886527], [565285.9460418505, 5948338.250657297], [565304.220139292, 5948312.489542003], [565324.4919802108, 5948288.926066846], [565348.8508559249, 5948266.487743631], [565390.9506725664, 5948236.73007918], [565434.281962135, 5948214.879061598], [565459.287583722, 5948204.879290741], [565517.8626280337, 5948181.450046119], [565527.5555034084, 5948177.568379149], [565604.4275442678, 5948146.350600069], [565662.801943988, 5948123.676975181]]}, "properties": {"electrified": "rail", "frequency": "0", "gauge": "1435", "network": "HVV", "railway": "subway", "voltage": "750", "osm_id": 25904016, "tile_500": "NO_E565000_N5948000_500", "tile_250": "NO_E565250_N5948250_250"}}, {"type": "Feature", "geometry": {"type": "LineString", "coordinates": [[565662.801943988, 5948123.676975181], [565678.8590440504, 5948120.129389917]]}, "properties": {"bridge": "yes", "electrified": "rail", "frequency": "0", "gauge": "1435", "layer": "1", "network": "HVV", "railway": "subway", "voltage": "750", "osm_id": 25904017, "tile_500": "NO_E565500_N5948000_500", "tile_250": "NO_E565500_N5948000_250"}}, {"type": "Feature", "geometry": {"type": "LineString", "coordinates": [[566785.6395541462, 5948097.926492919], [566785.9718722473, 5948097.786564879], [566796.0258688551, 5948093.690080095], [566819.303896383, 5948082.793856909]]}, "properties": {"electrified": "rail", "frequency": "0", "gauge": "1435", "network": "HVV", "railway": "subway", "voltage": "750", "osm_id": 27121293, "tile_500": "NO_E566500_N5948000_500", "tile_250": "NO_E566750_N5948000_250"}}, {"type": "Feature", "geometry": {"type": "LineString", "coordinates": [[565076.3770248787, 5955541.5134207085], [565077.8104735835, 5955533.288058154], [565078.8276893044, 5955526.536835329], [565079.5946153043, 5955519.759881815], [565079.9298518366, 5955515.569575223], [565080.093061231, 5955512.36720205], [565080.3199404718, 5955506.005582053], [565080.2623164265, 5955499.706773745], [565079.8626836062, 5955491.912167302], [565079.1662819698, 5955484.113439033], [565078.1768184969, 5955476.043587262], [565076.5484170484, 5955466.4849412115], [565073.8290598856, 5955454.262865739], [565055.8140483061, 5955377.368414126], [565040.7566977196, 5955314.980488638], [564951.4957288258, 5954938.009868485], [564950.6238452789, 5954934.281297637]]}, "properties": {"electrified": "no", "gauge": "1435", "railway": "rail", "service": "spur", "usage": "industrial", "osm_id": 28216217, "tile_500": "NO_E565000_N5955000_500", "tile_250": "NO_E565000_N5955000_250"}}, {"type": "Feature", "geometry": {"type": "LineString", "coordinates": [[565445.7078759739, 5952443.978547092], [565446.2033992747, 5952434.48284352]]}, "properties": {"bridge": "yes", "electrified": "no", "gauge": "1435", "layer": "1", "maxspeed": "60", "network": "HVV", "operator": "AKN Eisenbahn GmbH", "passenger_lines": "2", "railway": "rail", "railway:preferred_direction": "forward", "railway:pzb": "yes", "ref": "9122", "usage": "branch", "osm_id": 32021644, "tile_500": "NO_E565000_N5952000_500", "tile_250": "NO_E565250_N5952250_250"}}, {"type": "Feature", "geometry": {"type": "LineString", "coordinates": [[565446.2033992747, 5952434.48284352], [565449.6697418345, 5952358.721689864], [565451.2103222851, 5952335.3538427325], [565453.2340845676, 5952321.350702414], [565454.9599664444, 5952311.193412248], [565456.941886249, 5952290.2574531855]]}, "properties": {"electrified": "no", "gauge": "1435", "maxspeed": "60", "network": "HVV", "operator": "AKN Eisenbahn GmbH", "passenger_lines": "2", "railway": "rail", "railway:preferred_direction": "forward", "railway:pzb": "yes", "ref": "9122", "usage": "branch", "osm_id": 32021645, "tile_500": "NO_E565000_N5952000_500", "tile_250": "NO_E565250_N5952250_250"}}, {"type": "Feature", "geometry": {"type": "LineString", "coordinates": [[562183.3199565263, 5956706.854459806], [562068.0916882644, 5956617.8336695945], [562067.1256088421, 5956619.078228881], [562066.3205676143, 5956620.113507581], [562140.7334302084, 5956677.60358003], [562140.0691990542, 5956678.462680932], [562157.5101477685, 5956691.9464855585], [562165.0362324528, 5956697.754574224], [562172.2816021247, 5956703.347534164], [562172.9859851002, 5956702.444462347], [562181.5825149652, 5956709.079066644], [562182.5283851948, 5956707.867643533], [562183.3199565263, 5956706.854459806]]}, "properties": {"area": "yes", "bench": "yes", "bin": "yes", "covered": "no", "departures_board": "realtime", "lit": "yes", "passenger_information_display": "yes", "public_transport": "platform", "railway": "platform", "route_ref": "A1", "shelter": "yes", "surface": "paving_stones", "tactile_paving": "yes", "wheelchair": "yes", "osm_id": 34409294, "tile_500": "NO_E562000_N5956500_500", "tile_250": "NO_E562000_N5956500_250"}}, {"type": "Feature", "geometry": {"type": "LineString", "coordinates": [[565452.8413163689, 5952468.21296197], [565454.3375976726, 5952468.35624254], [565452.6835324429, 5952501.748106234], [565450.4122243667, 5952546.737016488], [565449.1629890471, 5952586.120962199], [565445.666811244, 5952585.98315615], [565446.9226161542, 5952546.59930182], [565448.8521387235, 5952501.505476364], [565450.5411902766, 5952467.969446699], [565452.8413163689, 5952468.21296197]]}, "properties": {"area": "yes", "bench": "yes", "bin": "yes", "lit": "yes", "public_transport": "platform", "railway": "platform", "ref": "1", "shelter": "yes", "surface": "paving_stones", "tactile_paving": "yes", "train": "yes", "wheelchair": "limited", "osm_id": 58627011, "tile_500": "NO_E565000_N5952500_500", "tile_250": "NO_E565250_N5952500_250"}}, {"type": "Feature", "geometry": {"type": "LineString", "coordinates": [[565439.6515560636, 5952467.4280435415], [565442.5473068624, 5952467.557465248], [565441.0880364989, 5952501.185720205], [565438.1426590241, 5952546.243118874], [565436.8691490476, 5952585.482073462], [565432.9311543211, 5952585.315858084], [565434.204631338, 5952546.076902681], [565436.17929348, 5952501.050467557], [565437.6193522958, 5952467.377435039], [565439.6515560636, 5952467.4280435415]]}, "properties": {"area": "yes", "bench": "yes", "bin": "yes", "lit": "yes", "public_transport": "platform", "railway": "platform", "ref": "2", "shelter": "yes", "surface": "paving_stones", "tactile_paving": "yes", "train": "yes", "osm_id": 58627014, "tile_500": "NO_E565000_N5952500_500", "tile_250": "NO_E565250_N5952500_250"}}, {"type": "Feature", "geometry": {"type": "LineString", "coordinates": [[565362.1578344171, 5950158.929821175], [565364.7762497087, 5950157.263831821], [565350.3270190371, 5950134.062829476], [565290.5296322445, 5950038.271658745], [565287.9111793295, 5950039.937689521], [565362.1578344171, 5950158.929821175]]}, "properties": {"access": "customers", "bench": "yes", "bin": "yes", "customers": "HVV", "level": "0", "lit": "yes", "name": "Richtweg", "public_transport": "platform", "railway": "platform", "ref:IFOPT": "de:01060:36901:1:369002", "shelter": "yes", "tactile_paving": "yes", "wheelchair": "yes", "osm_id": 59421799, "tile_500": "NO_E565000_N5950000_500", "tile_250": "NO_E565250_N5950000_250"}}, {"type": "Feature", "geometry": {"type": "LineString", "coordinates": [[565364.878061218, 5950154.694879554], [565337.7555076992, 5950110.687724655], [565291.6973958175, 5950037.8761980785], [565276.4411395108, 5950014.719853134], [565232.1393050391, 5949946.072679167], [565204.586972397, 5949901.448395497], [565196.92473011, 5949889.680734596]]}, "properties": {"electrified": "rail", "frequency": "0", "gauge": "1435", "maxspeed": "80", "network": "HVV", "railway": "subway", "voltage": "750", "osm_id": 59421801, "tile_500": "NO_E565000_N5950000_500", "tile_250": "NO_E565250_N5950000_250"}}, {"type": "Feature", "geometry": {"type": "LineString", "coordinates": [[565371.2549429819, 5950153.9046446355], [565355.7220374375, 5950129.331021383], [565296.1006920383, 5950034.654944258], [565298.6142847296, 5950032.931823492], [565373.8733643485, 5950152.238660324], [565371.2549429819, 5950153.9046446355]]}, "properties": {"access": "customers", "bench": "yes", "bin": "yes", "customers": "HVV", "level": "0", "lit": "yes", "name": "Richtweg", "public_transport": "platform", "railway": "platform", "ref:IFOPT": "de:01060:36901:2:369003", "shelter": "yes", "tactile_paving": "yes", "wheelchair": "yes", "osm_id": 59421835, "tile_500": "NO_E565000_N5950000_500", "tile_250": "NO_E565250_N5950000_250"}}, {"type": "Feature", "geometry": {"type": "LineString", "coordinates": [[565498.5515035039, 5951519.6801892305], [565503.6351241653, 5951436.909356958], [565507.5995529803, 5951437.142742919], [565502.53597429, 5951519.891597889], [565500.2512495096, 5951555.867236062], [565504.3076720593, 5951556.12416014], [565511.6629893043, 5951437.3775147], [565512.1245840212, 5951429.850863873], [565512.6126611545, 5951421.846114497], [565508.5493667203, 5951421.600216994], [565506.6100493296, 5951421.484122268], [565504.545476837, 5951421.355152403], [565500.5217849737, 5951421.1098147845], [565500.0172658107, 5951429.348006048], [565499.5716871831, 5951436.674592135], [565493.9648424113, 5951519.571649172], [565492.3090807482, 5951555.422544077], [565496.3392578593, 5951555.667967698], [565498.5515035039, 5951519.6801892305]]}, "properties": {"access": "customers", "area": "yes", "bench": "yes", "bin": "yes", "customers": "HVV", "foot": "yes", "level": "-1", "lit": "yes", "public_transport": "platform", "railway": "platform", "ref:IFOPT": "de:01060:36961:1:369000;de:01060:36961:1:369001;de:01060:36961:1:8079027", "shelter": "yes", "subway": "yes", "surface": "tiles", "tactile_paving": "yes", "train": "yes", "wheelchair": "yes", "osm_id": 59761755, "tile_500": "NO_E565500_N5951000_500", "tile_250": "NO_E565500_N5951250_250"}}, {"type": "Feature", "geometry": {"type": "LineString", "coordinates": [[567160.3513678573, 5947808.67699795], [567147.5511998716, 5947825.485228749], [567134.6567797558, 5947840.111215845], [567121.4383599028, 5947854.298646561], [567110.8656649904, 5947864.584886411], [567092.9003572547, 5947880.852124735], [567039.6113536495, 5947924.677918996], [566921.0535419254, 5948021.017805232], [566895.1200650523, 5948041.122405337], [566875.0698844371, 5948055.435754199], [566858.7484173272, 5948065.8632387], [566836.7293113902, 5948078.346116922]]}, "properties": {"electrified": "rail", "frequency": "0", "gauge": "1435", "level": "1", "network": "HVV", "railway": "subway", "voltage": "750", "osm_id": 86585340, "tile_500": "NO_E567000_N5947500_500", "tile_250": "NO_E567000_N5947750_250"}}, {"type": "Feature", "geometry": {"type": "LineString", "coordinates": [[567293.7918985729, 5953879.090932434], [567294.6585209261, 5953954.78019716], [567293.4129715462, 5953966.6240288615]]}, "properties": {"abandoned:railway": "rail", "electrified": "no", "railway": "abandoned", "service": "spur", "osm_id": 96874909, "tile_500": "NO_E567000_N5953500_500", "tile_250": "NO_E567250_N5953750_250"}}, {"type": "Feature", "geometry": {"type": "LineString", "coordinates": [[567281.1831856683, 5953622.458962691], [567287.2467423514, 5953596.764022482], [567291.777592622, 5953583.609815303], [567298.7988419168, 5953567.976588826], [567311.6940491843, 5953522.406237483], [567318.8845451681, 5953453.631474396], [567325.589655682, 5953397.991097744], [567354.7739729334, 5953300.857195403]]}, "properties": {"disused:railway": "rail", "electrified": "no", "gauge": "1435", "railway": "disused", "service": "spur", "osm_id": 96874917, "tile_500": "NO_E567000_N5953000_500", "tile_250": "NO_E567250_N5953250_250"}}, {"type": "Feature", "geometry": {"type": "LineString", "coordinates": [[564272.5324618726, 5957260.741367598], [564309.4515506001, 5957140.317686241], [564336.1445172697, 5957065.330842645], [564366.694026763, 5956992.388916827], [564377.6702807742, 5956971.475976139], [564404.6946306403, 5956920.005856283], [564443.4933511358, 5956847.689705568], [564514.1161402124, 5956738.101985638], [564542.7408031898, 5956693.68706515], [564584.0885111839, 5956629.5300146835], [564587.3095589884, 5956624.533801543], [564589.8312645137, 5956620.518268708], [564592.4811605737, 5956616.293087879], [564677.2772314595, 5956481.31059019], [564723.9039909992, 5956408.592889378], [564795.2756548123, 5956297.294832545], [564804.0054658207, 5956283.606714018], [564891.790637106, 5956146.043239043], [564941.1348141762, 5956067.601337092], [564947.602056651, 5956057.331548118], [564971.7309395828, 5956014.292206178], [564990.5990198262, 5955966.361907854], [565007.398970551, 5955897.339144118], [565014.5855936728, 5955861.3977876585], [565014.8832419595, 5955859.910870061], [565023.8276580095, 5955815.181158958], [565043.99567313, 5955721.691991164], [565054.528356261, 5955667.59300969], [565072.0855187259, 5955577.428129263], [565073.9322478758, 5955567.940001817], [565086.4581623, 5955513.3235400375], [565135.0442488918, 5955287.014480303], [565141.5345233602, 5955257.161350002], [565150.0680248159, 5955217.9452612335], [565164.8595569758, 5955149.952199127], [565194.2814089205, 5955009.99154911], [565205.5622930394, 5954958.284530257], [565213.4495819906, 5954919.593667495], [565243.9211609508, 5954778.346040466], [565246.6645849308, 5954765.621314551], [565261.9534968958, 5954694.78690354], [565291.6576429511, 5954557.2008699365], [565294.857040826, 5954543.492200843], [565297.1236748864, 5954529.492358371], [565298.2373144756, 5954515.854778893], [565298.4585608548, 5954503.762577325], [565298.9970986107, 5954474.104922851], [565299.0471990728, 5954416.522283011], [565298.8777899577, 5954412.580888953]]}, "properties": {"electrified": "no", "gauge": "1435", "maxspeed": "80", "network": "HVV", "operator": "AKN Eisenbahn GmbH", "passenger_lines": "2", "railway": "rail", "railway:preferred_direction": "backward", "railway:pzb": "yes", "ref": "9122", "usage": "branch", "osm_id": 100502632, "tile_500": "NO_E564500_N5955500_500", "tile_250": "NO_E564750_N5955750_250"}}, {"type": "Feature", "geometry": {"type": "LineString", "coordinates": [[565449.900946915, 5952443.8478960665], [565450.2471829304, 5952434.172074491]]}, "properties": {"bridge": "yes", "electrified": "no", "gauge": "1435", "layer": "1", "maxspeed": "60", "network": "HVV", "operator": "AKN Eisenbahn GmbH", "passenger_lines": "2", "railway": "rail", "railway:pzb": "yes", "ref": "9122", "usage": "branch", "osm_id": 100502738, "tile_500": "NO_E565000_N5952000_500", "tile_250": "NO_E565250_N5952250_250"}}, {"type": "Feature", "geometry": {"type": "LineString", "coordinates": [[565450.2471829304, 5952434.172074491], [565455.2575787952, 5952321.556975375], [565456.941886249, 5952290.2574531855]]}, "properties": {"electrified": "no", "gauge": "1435", "maxspeed": "60", "network": "HVV", "operator": "AKN Eisenbahn GmbH", "passenger_lines": "2", "railway": "rail", "railway:preferred_direction": "backward", "railway:pzb": "yes", "ref": "9122", "usage": "branch", "osm_id": 100502740, "tile_500": "NO_E565000_N5952000_500", "tile_250": "NO_E565250_N5952250_250"}}, {"type": "Feature", "geometry": {"type": "LineString", "coordinates": [[564579.8934979874, 5956637.728566364], [564581.469111983, 5956638.718359398], [564582.3581160972, 5956639.28697841], [564539.7451044659, 5956706.264047011], [564519.638049437, 5956737.922125042], [564517.1734641984, 5956736.363745549], [564537.2805086693, 5956704.705657083], [564579.8934979874, 5956637.728566364]]}, "properties": {"area": "yes", "bench": "yes", "bin": "yes", "lit": "yes", "public_transport": "platform", "railway": "platform", "ref": "1", "shelter": "yes", "tactile_paving": "yes", "train": "yes", "osm_id": 131614849, "tile_500": "NO_E564500_N5956500_500", "tile_250": "NO_E564500_N5956500_250"}}, {"type": "Feature", "geometry": {"type": "LineString", "coordinates": [[565085.2246863714, 5955537.5414976785], [565069.1301124399, 5955615.453315983], [565060.8954257943, 5955654.618060118], [565058.218691237, 5955654.057911153], [565066.4533562356, 5955614.893162505], [565082.5477325406, 5955536.992460462], [565084.1327399024, 5955537.326039498], [565085.2246863714, 5955537.5414976785]]}, "properties": {"area": "yes", "bench": "yes", "bin": "yes", "check_date:shelter": "2023-01-29", "lit": "yes", "public_transport": "platform", "railway": "platform", "shelter": "no", "tactile_paving": "no", "train": "yes", "osm_id": 131614860, "tile_500": "NO_E565000_N5955500_500", "tile_250": "NO_E565000_N5955500_250"}}, {"type": "Feature", "geometry": {"type": "LineString", "coordinates": [[564588.7916675338, 5956602.17740595], [564590.0923701727, 5956603.01875679], [564591.8181043494, 5956604.121895412], [564634.4689225588, 5956537.869066691], [564656.0960889899, 5956504.173904591], [564653.0694583949, 5956502.240499261], [564631.4423055892, 5956535.935675143], [564592.4239784501, 5956596.53036153], [564588.7916675338, 5956602.17740595]]}, "properties": {"area": "yes", "bench": "yes", "bin": "yes", "lit": "yes", "public_transport": "platform", "railway": "platform", "ref": "2", "shelter": "yes", "tactile_paving": "yes", "train": "yes", "wheelchair": "no", "osm_id": 131614867, "tile_500": "NO_E564500_N5956500_500", "tile_250": "NO_E564500_N5956500_250"}}, {"type": "Feature", "geometry": {"type": "LineString", "coordinates": [[565072.0442648934, 5955538.6046751905], [565056.8734132214, 5955615.56129185], [565049.1584114777, 5955654.833415574], [565051.7304055847, 5955655.336468969], [565059.4454282889, 5955616.0643492965], [565074.616321029, 5955539.107740607], [565073.4453920552, 5955538.880060725], [565072.0442648934, 5955538.6046751905]]}, "properties": {"area": "yes", "bench": "yes", "bin": "yes", "check_date:shelter": "2023-01-29", "lit": "yes", "public_transport": "platform", "railway": "platform", "shelter": "yes", "tactile_paving": "no", "train": "yes", "osm_id": 131614872, "tile_500": "NO_E565000_N5955500_500", "tile_250": "NO_E565000_N5955500_250"}}, {"type": "Feature", "geometry": {"type": "LineString", "coordinates": [[565213.4495819906, 5954919.593667495], [565219.2726738491, 5954898.877930378], [565224.8683679623, 5954882.654431612], [565239.773975428, 5954856.367999996], [565257.2519381696, 5954833.444470118], [565294.8325122494, 5954797.648662993], [565304.9147096811, 5954789.465981445], [565316.0840950605, 5954781.854833883], [565332.8580883276, 5954772.563738272], [565358.4731284688, 5954761.793668535], [565386.0048850671, 5954754.088209742], [565417.9158923234, 5954750.260674844], [565448.4147638803, 5954750.241401863], [565595.9744731169, 5954765.234237694], [565912.435148435, 5954791.327901], [565998.2230600035, 5954812.007919694], [566053.9452766163, 5954833.7789743105], [566071.4332811056, 5954843.194355558], [566105.6694157857, 5954861.614300735], [566113.1326528395, 5954865.680886806], [566134.5729772642, 5954877.366593418], [566218.1857295202, 5954922.956211926], [566320.4332478842, 5954964.805223235], [566364.4498508191, 5954982.820289775], [566474.1650874931, 5955027.738333893], [566490.231830111, 5955034.464604926], [566601.530736357, 5955081.043868629], [566614.974143615, 5955086.665071944], [566684.3750897571, 5955114.246390499], [566736.7984921687, 5955130.9603638705], [566794.5615382165, 5955140.963385058], [566864.4273495026, 5955144.162979784], [566893.8834515663, 5955141.712533341], [566917.3406178241, 5955138.520090264], [566941.4521868861, 5955135.23696638], [566982.289242235, 5955124.370508903], [567022.5404687601, 5955108.355204726], [567047.0570305487, 5955095.686956626], [567060.3011930551, 5955087.074760721], [567085.989191585, 5955068.626143257], [567089.7949999181, 5955065.898798665], [567113.4741985558, 5955046.319964107], [567124.2606188561, 5955036.604523129], [567151.3472411773, 5955007.137985833], [567176.7120391418, 5954968.032911483], [567198.110064814, 5954923.574480992], [567208.2933339677, 5954893.387432866], [567213.839526179, 5954873.282014114], [567219.8843215714, 5954840.954827541], [567224.232637121, 5954805.9438841995], [567243.1035345249, 5954648.017500472], [567244.4308079024, 5954636.898097704], [567245.6078092502, 5954627.056180895], [567247.409921855, 5954610.891789527], [567250.7959133515, 5954580.440394609], [567274.1284880184, 5954393.5470029805], [567287.423722129, 5954275.832811891], [567290.7063867545, 5954219.976310264], [567287.1562422067, 5954020.512796116], [567286.2595911402, 5953984.147005719], [567282.0761631333, 5953842.091387246], [567277.9286288319, 5953657.040424731], [567278.7150225859, 5953648.683977827], [567281.1831856683, 5953622.458962691], [567282.3276742835, 5953610.302118061], [567320.2770352236, 5953267.936830633], [567322.3143976373, 5953247.380580305]]}, "properties": {"alt_name": "Stammgleis Harksh\u00f6rn", "electrified": "no", "gauge": "1435", "maxspeed": "40", "name": "Norderstedter Industriebahn", "operator": "AKN Eisenbahn GmbH", "passenger_lines": "1", "railway": "rail", "railway:traffic_mode": "freight", "usage": "industrial", "osm_id": 133686477, "tile_500": "NO_E566500_N5954500_500", "tile_250": "NO_E566500_N5954500_250"}}, {"type": "Feature", "geometry": {"type": "LineString", "coordinates": [[566128.7002685434, 5948172.318584854], [566137.7249774964, 5948173.703026044], [566173.5004267335, 5948179.214154748], [566250.503149053, 5948191.048525591], [566266.350565074, 5948193.486394647], [566266.6335917192, 5948191.687788808], [566258.0176814336, 5948190.364501194], [566259.3623557368, 5948181.682036352], [566264.4251916244, 5948182.454473864], [566264.8464287679, 5948179.756518389], [566252.4004572701, 5948177.845102694], [566173.2550859733, 5948165.680084029], [566139.6480803153, 5948160.5221822], [566130.7356337742, 5948159.139318537], [566128.7002685434, 5948172.318584854]]}, "properties": {"access": "customers", "area": "yes", "bench": "yes", "bin": "yes", "customers": "HVV", "description": "Bahnhof Ochsenzoll, U1, Bahnsteig, barrierfrei", "layer": "-1", "level": "-1", "name": "Ochsenzoll", "public_transport": "platform", "railway": "platform", "ref:IFOPT": "de:02000:92900:1:929000;de:02000:92900:1:929001", "subway": "yes", "tactile_paving": "yes", "wheelchair": "yes", "osm_id": 133907963, "tile_500": "NO_E566000_N5948000_500", "tile_250": "NO_E566000_N5948000_250"}}, {"type": "Feature", "geometry": {"type": "LineString", "coordinates": [[566366.6481140163, 5948195.425546485], [566391.3599622187, 5948195.15167933], [566447.041480604, 5948185.156883716], [566656.1885802477, 5948150.666378747], [566664.8090228271, 5948149.342194048]]}, "properties": {"gauge": "1435", "railway": "subway", "railway:track_ref": "24", "service": "yard", "osm_id": 133907964, "tile_500": "NO_E566500_N5948000_500", "tile_250": "NO_E566500_N5948000_250"}}, {"type": "Feature", "geometry": {"type": "LineString", "coordinates": [[566388.6039059609, 5948192.431075566], [566418.5742466308, 5948186.567957584], [566446.278162702, 5948181.207068716], [566662.5699284197, 5948145.582810143], [566675.5383749334, 5948143.263277311]]}, "properties": {"gauge": "1435", "railway": "subway", "railway:track_ref": "23", "service": "yard", "osm_id": 133907965, "tile_500": "NO_E566500_N5948000_500", "tile_250": "NO_E566500_N5948000_250"}}, {"type": "Feature", "geometry": {"type": "LineString", "coordinates": [[566017.9850977298, 5948147.739002627], [566002.6445277912, 5948148.235538057], [565985.1439547166, 5948147.299757556]]}, "properties": {"gauge": "1435", "railway": "subway", "service": "yard", "osm_id": 133907966, "tile_500": "NO_E566000_N5948000_500", "tile_250": "NO_E566000_N5948000_250"}}, {"type": "Feature", "geometry": {"type": "LineString", "coordinates": [[566418.6004054619, 5948206.207769727], [566442.7704715373, 5948202.1989125535], [566447.4058338398, 5948201.429952414], [566571.2051271042, 5948180.7951856], [566582.8311494096, 5948179.023858384]]}, "properties": {"gauge": "1435", "railway": "subway", "railway:track_ref": "28", "service": "yard", "osm_id": 133907967, "tile_500": "NO_E566500_N5948000_500", "tile_250": "NO_E566500_N5948000_250"}}, {"type": "Feature", "geometry": {"type": "LineString", "coordinates": [[566390.2097353613, 5948198.9409093885], [566417.5538764164, 5948194.253524694], [566627.7263584738, 5948159.153144274], [566637.6940927414, 5948157.391808862]]}, "properties": {"gauge": "1435", "railway": "subway", "railway:track_ref": "25", "service": "yard", "osm_id": 133907968, "tile_500": "NO_E566500_N5948000_500", "tile_250": "NO_E566500_N5948000_250"}}, {"type": "Feature", "geometry": {"type": "LineString", "coordinates": [[566364.6103106067, 5948199.380275174], [566383.3643505869, 5948199.489527086], [566390.2097353613, 5948198.9409093885], [566409.6851489114, 5948198.960318873], [566418.2661056889, 5948198.080213373], [566628.0180387493, 5948163.274335982], [566638.8850108373, 5948161.458996827]]}, "properties": {"gauge": "1435", "railway": "subway", "railway:track_ref": "26", "service": "yard", "osm_id": 133907969, "tile_500": "NO_E566500_N5948000_500", "tile_250": "NO_E566500_N5948000_250"}}, {"type": "Feature", "geometry": {"type": "LineString", "coordinates": [[566399.0243722583, 5948206.298171758], [566420.2099828604, 5948209.179230094], [566431.6018411263, 5948209.94121315], [566440.3685071327, 5948209.475480152], [566444.4874019274, 5948209.25556949], [566561.3494907718, 5948190.035707308], [566576.2330148738, 5948185.428593041], [566585.3184642218, 5948182.519670335]]}, "properties": {"gauge": "1435", "railway": "subway", "railway:track_ref": "30", "service": "yard", "osm_id": 133907970, "tile_500": "NO_E566000_N5948000_500", "tile_250": "NO_E566250_N5948000_250"}}, {"type": "Feature", "geometry": {"type": "LineString", "coordinates": [[566338.1159788907, 5948206.116239244], [566363.617708786, 5948206.977227266], [566378.288994229, 5948206.6170677645], [566399.0243722583, 5948206.298171758]]}, "properties": {"gauge": "1435", "railway": "subway", "service": "yard", "osm_id": 133907971, "tile_500": "NO_E566000_N5948000_500", "tile_250": "NO_E566250_N5948000_250"}}, {"type": "Feature", "geometry": {"type": "LineString", "coordinates": [[562858.4485356783, 5957241.546081254], [562826.1819850573, 5957214.953159865], [562774.8733910143, 5957171.981945149], [562749.8769255171, 5957150.338464571], [562723.7335833056, 5957128.646379949], [562672.0269938767, 5957086.205107779], [562651.792783815, 5957070.289615968], [562584.0094706765, 5957016.9745085705], [562497.9677643093, 5956950.1977029545], [562439.116993953, 5956904.214356593], [562322.2147747128, 5956812.8725898415], [562203.8019379321, 5956720.734885778], [562202.737908622, 5956719.919602919], [562201.5238639375, 5956718.979929873], [562192.4310346354, 5956711.982630416], [562148.4989857477, 5956677.2949143145], [562042.0976499968, 5956596.358925164], [562031.8738815543, 5956588.579198554], [562016.7235101486, 5956575.860595186], [561987.7752578994, 5956551.353861637], [561978.6795764896, 5956544.025463129]]}, "properties": {"construction:electrified": "contact_line", "construction:frequency": "16.7", "construction:voltage": "15000", "electrified": "no", "gauge": "1435", "maxspeed": "80", "network": "HVV", "operator": "AKN Eisenbahn GmbH", "passenger_lines": "2", "railway": "rail", "railway:preferred_direction": "forward", "railway:pzb": "yes", "ref": "9121", "usage": "branch", "osm_id": 133916425, "tile_500": "NO_E562000_N5956500_500", "tile_250": "NO_E562250_N5956750_250"}}, {"type": "Feature", "geometry": {"type": "LineString", "coordinates": [[566836.7293113902, 5948078.346116922], [566821.6167065887, 5948086.009134054]]}, "properties": {"bridge": "yes", "electrified": "rail", "frequency": "0", "gauge": "1435", "layer": "1", "level": "1", "network": "HVV", "railway": "subway", "voltage": "750", "osm_id": 134170508, "tile_500": "NO_E566500_N5948000_500", "tile_250": "NO_E566750_N5948000_250"}}, {"type": "Feature", "geometry": {"type": "LineString", "coordinates": [[566048.6240553916, 5948161.021613128], [566014.7992417838, 5948155.839290805], [565923.8061392277, 5948141.898552841], [565834.1968145415, 5948128.179273239], [565790.8284067954, 5948122.297329869], [565784.2862490967, 5948121.949771223], [565769.8519802156, 5948121.413811745], [565753.3505042881, 5948121.305168568], [565718.488963504, 5948123.131695582], [565680.3713583743, 5948128.67391461]]}, "properties": {"electrified": "rail", "frequency": "0", "gauge": "1435", "network": "HVV", "railway": "subway", "voltage": "750", "osm_id": 134170509, "tile_500": "NO_E565500_N5948000_500", "tile_250": "NO_E565750_N5948000_250"}}, {"type": "Feature", "geometry": {"type": "LineString", "coordinates": [[565665.876995248, 5948131.965164344], [565655.3502642245, 5948134.989232524], [565649.6788979679, 5948136.62353441], [565606.8492301313, 5948148.921410063], [565532.5165924962, 5948179.484698839], [565443.7879695351, 5948215.389830874], [565392.4759451508, 5948239.633237405], [565350.7353928831, 5948269.685191786], [565331.9944715146, 5948287.183324716], [565327.4164894324, 5948291.44808993], [565307.0941251663, 5948314.843943477], [565290.563489239, 5948339.694608029], [565266.4132564114, 5948379.015942905], [565253.9219333632, 5948398.926795055], [565224.2107517788, 5948448.185469062], [565193.8350803525, 5948497.768910106], [565170.6809177912, 5948542.067229048], [565157.7608840588, 5948574.367969717], [565149.1061502642, 5948602.065657593], [565142.105405152, 5948631.967216434], [565137.2549674454, 5948684.0081705395]]}, "properties": {"electrified": "rail", "frequency": "0", "gauge": "1435", "network": "HVV", "railway": "subway", "voltage": "750", "osm_id": 150455367, "tile_500": "NO_E565000_N5948000_500", "tile_250": "NO_E565250_N5948250_250"}}, {"type": "Feature", "geometry": {"type": "LineString", "coordinates": [[565678.8590440504, 5948120.129389917], [565705.0287774154, 5948113.885898978], [565762.1186185058, 5948106.584337699], [565777.7767993654, 5948106.058081249], [565791.1548445462, 5948106.067420964], [565806.210984599, 5948106.5453949375], [565821.9098703975, 5948108.30091754], [565901.2328288924, 5948122.053648364], [565965.4815814034, 5948132.357993885], [566085.9489733748, 5948150.797823196]]}, "properties": {"electrified": "rail", "frequency": "0", "gauge": "1435", "network": "HVV", "railway": "subway", "voltage": "750", "osm_id": 150455370, "tile_500": "NO_E565500_N5948000_500", "tile_250": "NO_E565750_N5948000_250"}}, {"type": "Feature", "geometry": {"type": "LineString", "coordinates": [[565680.3713583743, 5948128.67391461], [565665.876995248, 5948131.965164344]]}, "properties": {"bridge": "yes", "electrified": "rail", "frequency": "0", "gauge": "1435", "layer": "1", "network": "HVV", "railway": "subway", "voltage": "750", "osm_id": 150455371, "tile_500": "NO_E565500_N5948000_500", "tile_250": "NO_E565500_N5948000_250"}}, {"type": "Feature", "geometry": {"type": "LineString", "coordinates": [[565200.3336592277, 5949888.637624058], [565207.9548879146, 5949900.504865086], [565296.1779051055, 5950039.0734920455], [565340.3544429014, 5950108.99919597], [565371.9988534343, 5950158.810948689], [565383.2231558997, 5950176.48141545], [565417.8418018898, 5950234.090556553], [565458.0690898747, 5950311.829319649], [565488.3406490423, 5950386.959309712], [565512.3625478405, 5950462.235952131], [565514.0337870015, 5950469.758984477], [565526.2100390601, 5950524.6189513635], [565530.1810588436, 5950547.607470412], [565540.1906319369, 5950618.10427649], [565546.4929883266, 5950715.2656532535], [565539.7720324115, 5950872.643399617], [565538.8863749445, 5950903.909490694], [565538.3689025918, 5950922.050670079], [565537.2991472756, 5950978.316934748], [565537.7528172826, 5951012.016331948], [565533.5368217253, 5951102.098634585]]}, "properties": {"electrified": "rail", "frequency": "0", "gauge": "1435", "maxspeed": "80", "network": "HVV", "railway": "subway", "voltage": "750", "osm_id": 152354502, "tile_500": "NO_E565000_N5950000_500", "tile_250": "NO_E565250_N5950250_250"}}, {"type": "Feature", "geometry": {"type": "LineString", "coordinates": [[565533.5368217253, 5951102.098634585], [565531.0366361777, 5951142.132650999], [565527.4428890235, 5951203.270766235], [565521.0560060439, 5951319.760940421], [565518.2679895479, 5951370.9626340065], [565518.1266522533, 5951372.574100316]]}, "properties": {"electrified": "rail", "frequency": "0", "gauge": "1435", "layer": "-1", "level": "-1", "network": "HVV", "railway": "subway", "tunnel": "yes", "voltage": "750", "osm_id": 152354880, "tile_500": "NO_E565500_N5951000_500", "tile_250": "NO_E565500_N5951000_250"}}, {"type": "Feature", "geometry": {"type": "LineString", "coordinates": [[565521.5056287326, 5951097.502005104], [565524.6878467366, 5951050.70106692], [565532.2313687025, 5950923.266832077], [565533.6845718762, 5950903.836842048], [565534.2841535964, 5950895.889292629], [565535.3854193981, 5950872.348464922], [565542.0611214306, 5950729.546665941], [565542.1010033675, 5950701.161832483], [565535.6512419484, 5950618.3301896695], [565522.4599038097, 5950525.53465558], [565512.2871251449, 5950479.938204971], [565510.2363107065, 5950470.75192851], [565508.589610062, 5950463.362766009], [565484.5035829234, 5950388.419063777], [565454.1179615353, 5950313.888374829], [565414.6377629014, 5950236.082168503], [565379.6313568609, 5950178.812591586], [565364.878061218, 5950154.694879554]]}, "properties": {"electrified": "rail", "frequency": "0", "gauge": "1435", "maxspeed": "80", "network": "HVV", "railway": "subway", "voltage": "750", "osm_id": 152354881, "tile_500": "NO_E565500_N5950500_500", "tile_250": "NO_E565500_N5950500_250"}}, {"type": "Feature", "geometry": {"type": "LineString", "coordinates": [[565495.1976465926, 5951478.551843527], [565495.3189397219, 5951476.483882584], [565497.9433777172, 5951432.723968258], [565498.1296684219, 5951430.256336668], [565502.6489903745, 5951372.302354817]]}, "properties": {"electrified": "rail", "frequency": "0", "gauge": "1435", "layer": "-1", "level": "-1", "network": "HVV", "railway": "subway", "railway:track_ref": "1", "voltage": "750", "osm_id": 152354882, "tile_500": "NO_E565000_N5951000_500", "tile_250": "NO_E565250_N5951250_250"}}, {"type": "Feature", "geometry": {"type": "LineString", "coordinates": [[565137.2549674454, 5948684.0081705395], [565136.9957277767, 5948688.410908658], [565135.3248296244, 5948749.82048743], [565132.0627682921, 5948792.603477177], [565127.1501542922, 5948869.145479585], [565119.0500726774, 5948994.068470598], [565106.7110887587, 5949122.237463095], [565090.2060129831, 5949359.906310913], [565088.041134943, 5949398.865711123], [565084.787773618, 5949448.692344115], [565082.3989398316, 5949499.9997461215], [565082.5098509558, 5949527.730061239]]}, "properties": {"electrified": "rail", "frequency": "0", "gauge": "1435", "layer": "-1", "level": "-1", "maxspeed": "80", "network": "HVV", "railway": "subway", "tunnel": "yes", "voltage": "750", "osm_id": 154460035, "tile_500": "NO_E565000_N5949000_500", "tile_250": "NO_E565000_N5949000_250"}}, {"type": "Feature", "geometry": {"type": "LineString", "coordinates": [[562330.5566086451, 5956813.840389155], [562332.1932661633, 5956811.759147626], [562230.7500845945, 5956732.3312431695], [562224.8045767435, 5956727.67900926], [562224.0064066228, 5956728.692098453], [562223.1679395894, 5956729.760287926], [562330.5566086451, 5956813.840389155]]}, "properties": {"area": "yes", "bench": "yes", "bin": "yes", "covered": "no", "lit": "yes", "passenger_information_display": "yes", "public_transport": "platform", "railway": "platform", "route_ref": "A1", "shelter": "yes", "surface": "paving_stones", "tactile_paving": "yes", "wheelchair": "yes", "osm_id": 159822149, "tile_500": "NO_E562000_N5956500_500", "tile_250": "NO_E562250_N5956750_250"}}, {"type": "Feature", "geometry": {"type": "LineString", "coordinates": [[567216.2205539204, 5954696.224873051], [567202.9531327144, 5954853.586317562]]}, "properties": {"electrified": "no", "gauge": "1435", "railway": "rail", "service": "spur", "tunnel": "yes", "usage": "freight", "osm_id": 186507102, "tile_500": "NO_E567000_N5954500_500", "tile_250": "NO_E567000_N5954750_250"}}, {"type": "Feature", "geometry": {"type": "LineString", "coordinates": [[567320.2770352236, 5953267.936830633], [567315.0476951188, 5953285.13132104], [567309.6109781027, 5953318.613205066], [567304.4583823489, 5953356.672493744], [567292.1395914082, 5953475.16833055], [567283.1179912564, 5953561.208676037], [567282.3276742835, 5953610.302118061]]}, "properties": {"electrified": "no", "gauge": "1435", "name": "Norderstedter Industriebahn", "railway": "rail", "service": "yard", "usage": "industrial", "osm_id": 186507103, "tile_500": "NO_E567000_N5953000_500", "tile_250": "NO_E567250_N5953250_250"}}, {"type": "Feature", "geometry": {"type": "LineString", "coordinates": [[567328.4053268736, 5953187.191463016], [567332.7129610586, 5953168.0142196985], [567342.0031639736, 5953145.625981477], [567352.9798076603, 5953116.56335051], [567355.853352772, 5953103.507796717], [567356.2337345651, 5953098.161030577]]}, "properties": {"disused:railway": "rail", "electrified": "no", "gauge": "1435", "railway": "disused", "service": "spur", "usage": "industrial", "osm_id": 192246363, "tile_500": "NO_E567000_N5953000_500", "tile_250": "NO_E567250_N5953000_250"}}, {"type": "Feature", "geometry": {"type": "LineString", "coordinates": [[565205.5622930394, 5954958.284530257], [565199.3963934113, 5954979.941327665], [565195.4411649315, 5954990.167851316], [565189.6094931467, 5955012.463562147]]}, "properties": {"electrified": "no", "gauge": "1435", "maxspeed": "40", "operator": "AKN Eisenbahn GmbH", "railway": "rail", "service": "crossover", "osm_id": 210392640, "tile_500": "NO_E565000_N5954500_500", "tile_250": "NO_E565000_N5954750_250"}}, {"type": "Feature", "geometry": {"type": "LineString", "coordinates": [[565078.9041931592, 5949527.702331295], [565078.7444444218, 5949499.68203467], [565080.7414836116, 5949448.524980098], [565084.3865608898, 5949398.547995908], [565086.5514086343, 5949359.588594256], [565103.0629035399, 5949121.91982663], [565107.0522581448, 5948993.312358081], [565115.0931712623, 5948868.822490016], [565120.0647480141, 5948791.8250855], [565125.6222192519, 5948749.274211563], [565132.2976635438, 5948686.60991624], [565132.663866027, 5948683.543914225]]}, "properties": {"electrified": "rail", "frequency": "0", "gauge": "1435", "layer": "-1", "level": "-1", "maxspeed": "80", "network": "HVV", "railway": "subway", "tunnel": "yes", "voltage": "750", "osm_id": 231597552, "tile_500": "NO_E565000_N5949000_500", "tile_250": "NO_E565000_N5949000_250"}}, {"type": "Feature", "geometry": {"type": "LineString", "coordinates": [[565196.92473011, 5949889.680734596], [565181.0010631566, 5949863.155062811], [565165.0689083842, 5949834.848991717], [565152.5497995159, 5949809.950741607], [565147.046739633, 5949797.712417382], [565140.4440500824, 5949783.333560235], [565131.1499059203, 5949761.117255685], [565122.1754880303, 5949737.269720383], [565114.8905487034, 5949715.882479162], [565108.0792881306, 5949694.145753032], [565098.6133646038, 5949658.574595056], [565094.1899608722, 5949638.940651883], [565089.4380539145, 5949616.798557574], [565082.8534072889, 5949575.8373572035], [565080.191804657, 5949548.68367128], [565078.9041931592, 5949527.702331295]]}, "properties": {"electrified": "rail", "frequency": "0", "gauge": "1435", "maxspeed": "80", "network": "HVV", "railway": "subway", "voltage": "750", "osm_id": 231597559, "tile_500": "NO_E565000_N5949500_500", "tile_250": "NO_E565000_N5949500_250"}}, {"type": "Feature", "geometry": {"type": "LineString", "coordinates": [[565375.1101490903, 5953067.507472151], [565381.3075965984, 5953036.704785782]]}, "properties": {"bridge": "yes", "electrified": "no", "gauge": "1435", "layer": "1", "maxspeed": "60", "network": "HVV", "operator": "AKN Eisenbahn GmbH", "passenger_lines": "2", "railway": "rail", "railway:preferred_direction": "backward", "railway:pzb": "yes", "ref": "9122", "usage": "branch", "osm_id": 255384808, "tile_500": "NO_E565000_N5953000_500", "tile_250": "NO_E565250_N5953000_250"}}, {"type": "Feature", "geometry": {"type": "LineString", "coordinates": [[565381.3075965984, 5953036.704785782], [565407.0032294564, 5952878.41158607], [565410.2337015108, 5952858.783766958], [565431.8532420368, 5952727.383914503], [565442.6086529889, 5952588.510863088], [565446.9969430307, 5952495.393015869], [565449.0581626254, 5952458.835584426], [565449.8575498906, 5952444.592812047], [565449.900946915, 5952443.8478960665]]}, "properties": {"electrified": "no", "gauge": "1435", "maxspeed": "60", "network": "HVV", "operator": "AKN Eisenbahn GmbH", "passenger_lines": "2", "railway": "rail", "railway:preferred_direction": "backward", "railway:pzb": "yes", "ref": "9122", "usage": "branch", "osm_id": 255384809, "tile_500": "NO_E565000_N5952500_500", "tile_250": "NO_E565250_N5952500_250"}}, {"type": "Feature", "geometry": {"type": "LineString", "coordinates": [[565371.7889144958, 5953067.6280779], [565377.9553649989, 5953036.680301917]]}, "properties": {"bridge": "yes", "electrified": "no", "gauge": "1435", "layer": "1", "maxspeed": "60", "network": "HVV", "operator": "AKN Eisenbahn GmbH", "passenger_lines": "2", "railway": "rail", "railway:preferred_direction": "forward", "railway:pzb": "yes", "ref": "9122", "usage": "branch", "osm_id": 255384810, "tile_500": "NO_E565000_N5953000_500", "tile_250": "NO_E565250_N5953000_250"}}, {"type": "Feature", "geometry": {"type": "LineString", "coordinates": [[565377.9553649989, 5953036.680301917], [565396.4557963395, 5952914.450118382], [565403.0389959593, 5952876.831871009], [565406.4460687765, 5952858.263595959], [565409.8812670842, 5952839.573316522], [565419.8921978015, 5952775.776111302], [565426.5901129462, 5952727.121323245], [565437.931349226, 5952587.878112567], [565443.2923724754, 5952487.007058663], [565444.8826498548, 5952458.654919669], [565445.6571043308, 5952444.778996131], [565445.7078759739, 5952443.978547092]]}, "properties": {"electrified": "no", "gauge": "1435", "maxspeed": "60", "network": "HVV", "operator": "AKN Eisenbahn GmbH", "passenger_lines": "2", "railway": "rail", "railway:preferred_direction": "forward", "railway:pzb": "yes", "ref": "9122", "usage": "branch", "osm_id": 255384812, "tile_500": "NO_E565000_N5952500_500", "tile_250": "NO_E565250_N5952500_250"}}, {"type": "Feature", "geometry": {"type": "LineString", "coordinates": [[565530.0538039213, 5951014.423546902], [565529.9172396462, 5951024.2024193555], [565525.6008833448, 5951099.261648857]]}, "properties": {"electrified": "rail", "frequency": "0", "gauge": "1435", "railway": "subway", "service": "crossover", "voltage": "750", "osm_id": 305530323, "tile_500": "NO_E565500_N5951000_500", "tile_250": "NO_E565500_N5951000_250"}}, {"type": "Feature", "geometry": {"type": "LineString", "coordinates": [[565529.0611609534, 5951091.176011909], [565528.584064367, 5951100.28249974]]}, "properties": {"electrified": "rail", "frequency": "0", "gauge": "1435", "layer": "-1", "railway": "subway", "service": "crossover", "voltage": "750", "osm_id": 318685857, "tile_500": "NO_E565500_N5951000_500", "tile_250": "NO_E565500_N5951000_250"}}, {"type": "Feature", "geometry": {"type": "LineString", "coordinates": [[565525.6008833448, 5951099.261648857], [565515.8220636398, 5951230.770632988], [565512.1611005143, 5951271.678628255]]}, "properties": {"electrified": "rail", "frequency": "0", "gauge": "1435", "layer": "-1", "name": "U1", "railway": "subway", "service": "crossover", "tunnel": "yes", "voltage": "750", "osm_id": 318685858, "tile_500": "NO_E565500_N5951000_500", "tile_250": "NO_E565500_N5951000_250"}}, {"type": "Feature", "geometry": {"type": "LineString", "coordinates": [[565494.6280235138, 5951611.569259186], [565495.696354938, 5951592.734738785], [565495.8351964612, 5951590.355461627], [565498.5922474493, 5951541.823834603], [565502.8787227826, 5951478.792603174]]}, "properties": {"electrified": "no", "gauge": "1435", "layer": "-1", "level": "-1", "network": "HVV", "operator": "AKN Eisenbahn GmbH", "passenger_lines": "1", "railway": "rail", "railway:pzb": "yes", "ref": "9122", "usage": "branch", "osm_id": 332582157, "tile_500": "NO_E565000_N5951500_500", "tile_250": "NO_E565250_N5951500_250"}}, {"type": "Feature", "geometry": {"type": "LineString", "coordinates": [[565518.1266522533, 5951372.574100316], [565510.6904857937, 5951479.602686086]]}, "properties": {"electrified": "rail", "frequency": "0", "gauge": "1435", "layer": "-1", "level": "-1", "network": "HVV", "railway": "subway", "railway:track_ref": "2", "voltage": "750", "osm_id": 334686275, "tile_500": "NO_E565500_N5951000_500", "tile_250": "NO_E565500_N5951250_250"}}, {"type": "Feature", "geometry": {"type": "LineString", "coordinates": [[565502.6489903745, 5951372.302354817], [565502.7890025036, 5951370.312545823], [565502.8976421041, 5951368.678368329], [565504.9840251728, 5951325.634216985], [565507.0429267045, 5951297.800526868], [565514.1606577348, 5951201.761158388], [565517.9321298545, 5951148.2142472435]]}, "properties": {"electrified": "rail", "frequency": "0", "gauge": "1435", "layer": "-1", "level": "-1", "network": "HVV", "railway": "subway", "tunnel": "yes", "voltage": "750", "osm_id": 334686276, "tile_500": "NO_E565500_N5951000_500", "tile_250": "NO_E565500_N5951250_250"}}, {"type": "Feature", "geometry": {"type": "LineString", "coordinates": [[565456.941886249, 5952290.2574531855], [565457.1058494484, 5952285.130108954], [565461.6062937687, 5952188.731353511], [565463.6353576984, 5952140.30078761], [565464.4323984764, 5952123.86593498], [565469.7780818156, 5952013.269590969], [565470.0851536068, 5952006.875747642], [565470.7072959632, 5951993.988028195], [565471.3365085855, 5951982.958646872], [565477.6394621691, 5951872.843031318], [565483.4315473542, 5951777.586215109]]}, "properties": {"electrified": "no", "gauge": "1435", "maxspeed": "60", "network": "HVV", "operator": "AKN Eisenbahn GmbH", "passenger_lines": "1", "railway": "rail", "railway:pzb": "yes", "ref": "9122", "usage": "branch", "osm_id": 338475097, "tile_500": "NO_E565000_N5952000_500", "tile_250": "NO_E565250_N5952000_250"}}, {"type": "Feature", "geometry": {"type": "LineString", "coordinates": [[564268.624447717, 5957260.687730238], [564305.5539242742, 5957138.450427258], [564332.1416408881, 5957062.96139237], [564364.1025501172, 5956989.99433052], [564374.2631688635, 5956969.893586078], [564400.8541716548, 5956917.327021332], [564441.1447278752, 5956846.811720799], [564511.2023023389, 5956736.125714095], [564578.7555283919, 5956629.389717645], [564580.036308698, 5956627.371096401], [564583.2519875289, 5956622.285788782], [564585.752683745, 5956618.358981857], [564588.5970025212, 5956613.902808302], [564589.9046242962, 5956611.851178116], [564618.4027159414, 5956567.156771364], [564720.909523341, 5956406.715521756], [564792.003745974, 5956295.446964656], [564800.6953734771, 5956281.658166983], [564887.9780230181, 5956143.230874645], [564937.0867468014, 5956065.119486551], [564943.641864964, 5956054.695129232], [564967.9414386104, 5956011.2353001535], [564986.5480686253, 5955964.558737052], [565003.5534911904, 5955896.885205374], [565010.7004091294, 5955860.475949222], [565019.7350778491, 5955814.467852663], [565039.1433653858, 5955721.535610826], [565050.3149403478, 5955667.022655596], [565071.7704488215, 5955563.06963549], [565076.3770248787, 5955541.5134207085], [565082.509174285, 5955512.701197126], [565088.1390064481, 5955486.3411195185], [565130.8050990779, 5955285.8984697135], [565137.1069721237, 5955256.309768499], [565145.5124003247, 5955216.813711426], [565159.7191930042, 5955150.069881349], [565189.6094931467, 5955012.463562147], [565209.2658532612, 5954919.21276094], [565239.1902278751, 5954777.456767276], [565240.3200505466, 5954772.120303264], [565241.8598462116, 5954764.820029172], [565257.1503913831, 5954693.863227423], [565286.9004861659, 5954555.810463435], [565289.5326906277, 5954516.512420659], [565289.4182631545, 5954503.414093829], [565289.1697283877, 5954475.3144131135], [565289.2333197522, 5954466.012947195], [565289.6100497745, 5954413.864940737]]}, "properties": {"electrified": "no", "gauge": "1435", "maxspeed": "80", "network": "HVV", "operator": "AKN Eisenbahn GmbH", "passenger_lines": "2", "railway": "rail", "railway:preferred_direction": "forward", "railway:pzb": "yes", "ref": "9122", "usage": "branch", "osm_id": 338475098, "tile_500": "NO_E564500_N5955500_500", "tile_250": "NO_E564750_N5955750_250"}}, {"type": "Feature", "geometry": {"type": "LineString", "coordinates": [[566839.9470587131, 5948082.965178404], [566824.9013068565, 5948090.573500274]]}, "properties": {"bridge": "yes", "layer": "1", "railway": "abandoned", "osm_id": 364115516, "tile_500": "NO_E566500_N5948000_500", "tile_250": "NO_E566750_N5948000_250"}}, {"type": "Feature", "geometry": {"type": "LineString", "coordinates": [[566824.9013068565, 5948090.573500274], [566821.2566263269, 5948092.279741717], [566753.7990247755, 5948122.3430988835], [566672.2059821549, 5948160.674509633]]}, "properties": {"railway": "abandoned", "osm_id": 364115517, "tile_500": "NO_E566500_N5948000_500", "tile_250": "NO_E566500_N5948000_250"}}, {"type": "Feature", "geometry": {"type": "LineString", "coordinates": [[566842.3618975492, 5948086.437843209], [566877.6191609235, 5948065.241719087], [567008.6267132694, 5947962.557833268]]}, "properties": {"railway": "abandoned", "osm_id": 364115518, "tile_500": "NO_E566500_N5948000_500", "tile_250": "NO_E566750_N5948000_250"}}, {"type": "Feature", "geometry": {"type": "LineString", "coordinates": [[566366.6481140163, 5948195.425546485], [566388.6039059609, 5948192.431075566], [566416.9723685621, 5948183.0513759935], [566440.3525013509, 5948174.179890253], [566461.4465340229, 5948167.201168568], [566477.7139629467, 5948162.368528397]]}, "properties": {"gauge": "1435", "railway": "subway", "service": "crossover", "osm_id": 364115519, "tile_500": "NO_E566000_N5948000_500", "tile_250": "NO_E566250_N5948000_250"}}, {"type": "Feature", "geometry": {"type": "LineString", "coordinates": [[566399.0243722583, 5948206.298171758], [566418.6004054619, 5948206.207769727], [566439.7424786086, 5948205.627752694], [566443.8797755116, 5948205.508246222], [566552.8261517184, 5948187.778507024], [566566.9019067681, 5948184.695466702], [566575.295040006, 5948182.622377531]]}, "properties": {"gauge": "1435", "railway": "subway", "railway:track_ref": "29", "service": "yard", "osm_id": 364115521, "tile_500": "NO_E566000_N5948000_500", "tile_250": "NO_E566250_N5948000_250"}}, {"type": "Feature", "geometry": {"type": "LineString", "coordinates": [[566364.6103106067, 5948199.380275174], [566381.1884531946, 5948201.995766138], [566394.931742023, 5948203.258235205], [566415.3508802657, 5948202.879304586], [566418.9799043942, 5948202.262993615], [566603.0315061368, 5948171.721538384], [566614.4021515526, 5948170.258227991]]}, "properties": {"gauge": "1435", "railway": "subway", "railway:track_ref": "27", "service": "yard", "osm_id": 364115522, "tile_500": "NO_E566000_N5948000_500", "tile_250": "NO_E566250_N5948000_250"}}, {"type": "Feature", "geometry": {"type": "LineString", "coordinates": [[567165.1278931262, 5947809.624341527], [567145.2110358629, 5947835.744431154], [567113.451111055, 5947870.908690174], [567060.4090263966, 5947915.928392005], [567004.777220442, 5947959.620976033], [566890.8677505153, 5948050.6979866335], [566855.9176208839, 5948073.511827837], [566839.9470587131, 5948082.965178404]]}, "properties": {"railway": "abandoned", "osm_id": 364115523, "tile_500": "NO_E567000_N5947500_500", "tile_250": "NO_E567000_N5947750_250"}}, {"type": "Feature", "geometry": {"type": "LineString", "coordinates": [[565125.6222192519, 5948749.274211563], [565132.5046967476, 5948720.26115673], [565136.9957277767, 5948688.410908658]]}, "properties": {"electrified": "rail", "frequency": "0", "gauge": "1435", "layer": "-1", "level": "-1", "network": "HVV", "railway": "subway", "service": "crossover", "tunnel": "yes", "voltage": "750", "osm_id": 364118358, "tile_500": "NO_E565000_N5948500_500", "tile_250": "NO_E565000_N5948500_250"}}, {"type": "Feature", "geometry": {"type": "LineString", "coordinates": [[565132.2976635438, 5948686.60991624], [565132.5046967476, 5948720.26115673], [565135.3248296244, 5948749.82048743]]}, "properties": {"electrified": "rail", "frequency": "0", "gauge": "1435", "layer": "-1", "level": "-1", "network": "HVV", "railway": "subway", "service": "crossover", "tunnel": "yes", "voltage": "750", "osm_id": 364118364, "tile_500": "NO_E565000_N5948500_500", "tile_250": "NO_E565000_N5948500_250"}}, {"type": "Feature", "geometry": {"type": "LineString", "coordinates": [[565528.584064367, 5951100.28249974], [565526.2400810947, 5951142.844566458], [565520.3390359327, 5951231.634862739], [565516.8665069081, 5951271.811093326]]}, "properties": {"electrified": "rail", "frequency": "0", "gauge": "1435", "layer": "-1", "name": "U1", "railway": "subway", "service": "crossover", "tunnel": "yes", "voltage": "750", "osm_id": 364121031, "tile_500": "NO_E565500_N5951000_500", "tile_250": "NO_E565500_N5951000_250"}}, {"type": "Feature", "geometry": {"type": "LineString", "coordinates": [[561978.6910407066, 5956543.159091402], [562044.0779116708, 5956593.225062512], [562092.536439277, 5956630.308458948], [562194.7979792317, 5956709.031998168], [562204.9037218685, 5956716.721508228], [562206.1179142549, 5956717.650057009], [562263.2464588681, 5956763.073371754], [562288.5587079852, 5956782.615331095], [562441.3931211999, 5956900.6617717715], [562482.0088337222, 5956932.03671404], [562578.1154133414, 5957007.5378335975], [562654.2194364129, 5957066.828162811], [562675.9174305914, 5957083.731315828], [562727.3727184914, 5957125.735306558], [562753.3492786324, 5957147.080235234], [562778.5932456292, 5957168.460000898], [562828.7120605276, 5957211.159368548], [562865.1755031089, 5957241.636384463]]}, "properties": {"construction:electrified": "contact_line", "construction:frequency": "16.7", "construction:voltage": "15000", "electrified": "no", "gauge": "1435", "maxspeed": "80", "network": "HVV", "operator": "AKN Eisenbahn GmbH", "passenger_lines": "2", "railway": "rail", "railway:preferred_direction": "forward", "railway:pzb": "yes", "ref": "9121", "usage": "branch", "osm_id": 376554725, "tile_500": "NO_E562000_N5956500_500", "tile_250": "NO_E562250_N5956750_250"}}, {"type": "Feature", "geometry": {"type": "LineString", "coordinates": [[565122.0644440051, 5948791.952961154], [565121.8027823645, 5948796.055234944], [565117.2353426759, 5948866.77142682], [565115.5873400145, 5948892.251905846], [565109.6068207404, 5948984.857795131], [565109.0518684129, 5948993.440228865], [565117.0503085773, 5948993.951720524], [565123.5940993966, 5948892.652249191], [565125.2353870547, 5948867.182806013], [565130.0630727597, 5948792.47559726], [565122.0644440051, 5948791.952961154]]}, "properties": {"access": "customers", "area": "yes", "bench": "yes", "bin": "yes", "check_date:bench": "2023-01-14", "customers": "HVV", "layer": "-1", "level": "-1", "name": "Garstedt", "public_transport": "platform", "railway": "platform", "ref:IFOPT": "de:01060:36902:1:369004;de:01060:36902:1:369005", "subway": "yes", "tactile_paving": "yes", "toilets:wheelchair": "no", "tunnel": "yes", "wheelchair": "yes", "osm_id": 392259693, "tile_500": "NO_E565000_N5948500_500", "tile_250": "NO_E565000_N5948750_250"}}, {"type": "Feature", "geometry": {"type": "LineString", "coordinates": [[565483.4315473542, 5951777.586215109], [565486.2784235622, 5951735.376062053], [565493.16228332, 5951633.335806654], [565494.6280235138, 5951611.569259186]]}, "properties": {"electrified": "no", "gauge": "1435", "layer": "-1", "network": "HVV", "operator": "AKN Eisenbahn GmbH", "passenger_lines": "1", "railway": "rail", "railway:pzb": "yes", "ref": "9122", "usage": "branch", "osm_id": 454292955, "tile_500": "NO_E565000_N5951500_500", "tile_250": "NO_E565250_N5951500_250"}}, {"type": "Feature", "geometry": {"type": "LineString", "coordinates": [[565504.9840251728, 5951325.634216985], [565512.1611005143, 5951271.678628255], [565516.8206883525, 5951245.305533863], [565520.3390359327, 5951231.634862739], [565527.4428890235, 5951203.270766235]]}, "properties": {"electrified": "rail", "frequency": "0", "gauge": "1435", "layer": "-1", "name": "U1", "railway": "subway", "service": "crossover", "tunnel": "yes", "voltage": "750", "osm_id": 458498401, "tile_500": "NO_E565500_N5951000_500", "tile_250": "NO_E565500_N5951250_250"}}, {"type": "Feature", "geometry": {"type": "LineString", "coordinates": [[565514.1606577348, 5951201.761158388], [565515.8220636398, 5951230.770632988], [565516.8206883525, 5951245.305533863], [565516.8665069081, 5951271.811093326], [565521.0560060439, 5951319.760940421]]}, "properties": {"electrified": "rail", "frequency": "0", "gauge": "1435", "layer": "-1", "name": "U1", "railway": "subway", "service": "crossover", "tunnel": "yes", "voltage": "750", "osm_id": 458498402, "tile_500": "NO_E565500_N5951000_500", "tile_250": "NO_E565500_N5951250_250"}}, {"type": "Feature", "geometry": {"type": "LineString", "coordinates": [[566140.6672323336, 5948158.989860394], [566173.4097592785, 5948164.0799537], [566264.0134919981, 5948177.452573005], [566266.1422355172, 5948177.816421477]]}, "properties": {"electrified": "rail", "frequency": "0", "gauge": "1435", "level": "-1", "network": "HVV", "railway": "subway", "voltage": "750", "osm_id": 475261588, "tile_500": "NO_E566000_N5948000_500", "tile_250": "NO_E566000_N5948000_250"}}, {"type": "Feature", "geometry": {"type": "LineString", "coordinates": [[566268.3318289545, 5948195.405965184], [566266.3081472064, 5948195.088106472], [566172.4490261503, 5948180.690379522], [566137.3754783876, 5948175.534083963]]}, "properties": {"electrified": "rail", "frequency": "0", "gauge": "1435", "level": "-1", "network": "HVV", "railway": "subway", "voltage": "750", "osm_id": 475261590, "tile_500": "NO_E566000_N5948000_500", "tile_250": "NO_E566000_N5948000_250"}}, {"type": "Feature", "geometry": {"type": "LineString", "coordinates": [[566266.1422355172, 5948177.816421477], [566308.1956660039, 5948182.716148926], [566335.3986515808, 5948183.3450747505], [566357.9261458176, 5948181.971972436], [566377.5846750473, 5948179.790656738], [566477.7139629467, 5948162.368528397], [566611.1923509021, 5948139.913415177], [566670.6942905597, 5948129.4079440655], [566731.9941176337, 5948116.069079995], [566775.2576870909, 5948101.851430528], [566785.6395541462, 5948097.926492919]]}, "properties": {"electrified": "rail", "frequency": "0", "gauge": "1435", "network": "HVV", "railway": "subway", "voltage": "750", "osm_id": 475261592, "tile_500": "NO_E566500_N5948000_500", "tile_250": "NO_E566500_N5948000_250"}}, {"type": "Feature", "geometry": {"type": "LineString", "coordinates": [[566821.6167065887, 5948086.009134054], [566787.9934343082, 5948101.042192611], [566618.6266868042, 5948175.169593953], [566582.5834074089, 5948188.111244972], [566549.680315656, 5948199.51760393], [566522.3413111599, 5948207.564699475], [566485.4349903134, 5948214.308156868], [566446.857272946, 5948217.322909546], [566406.8969654515, 5948216.268141965], [566338.1159788907, 5948206.116239244], [566268.3318289545, 5948195.405965184]]}, "properties": {"electrified": "rail", "frequency": "0", "gauge": "1435", "network": "HVV", "railway": "subway", "voltage": "750", "osm_id": 475261593, "tile_500": "NO_E566500_N5948000_500", "tile_250": "NO_E566500_N5948000_250"}}, {"type": "Feature", "geometry": {"type": "LineString", "coordinates": [[565502.8787227826, 5951478.792603174], [565505.464940262, 5951439.1937204525]]}, "properties": {"electrified": "no", "gauge": "1435", "layer": "-1", "level": "-1", "network": "HVV", "operator": "AKN Eisenbahn GmbH", "passenger_lines": "1", "railway": "rail", "railway:pzb": "yes", "ref": "9122", "usage": "branch", "osm_id": 653547643, "tile_500": "NO_E565500_N5951000_500", "tile_250": "NO_E565500_N5951250_250"}}, {"type": "Feature", "geometry": {"type": "LineString", "coordinates": [[565510.6904857937, 5951479.602686086], [565508.5115925662, 5951520.286592266], [565502.5203595036, 5951597.136227571], [565502.0085399365, 5951607.78891576]]}, "properties": {"electrified": "rail", "frequency": "0", "gauge": "1435", "layer": "-1", "level": "-1", "network": "HVV", "railway": "subway", "railway:track_ref": "2", "voltage": "750", "osm_id": 653547644, "tile_500": "NO_E565500_N5951500_500", "tile_250": "NO_E565500_N5951500_250"}}, {"type": "Feature", "geometry": {"type": "LineString", "coordinates": [[565487.3385977426, 5951608.351892435], [565488.1637804593, 5951596.056755703], [565488.8395634214, 5951579.330918312], [565492.1888696915, 5951526.200907052], [565492.8155166474, 5951516.306470192], [565494.1971750635, 5951494.416353205], [565494.4937284832, 5951489.724825921], [565495.1976465926, 5951478.551843527]]}, "properties": {"electrified": "rail", "frequency": "0", "gauge": "1435", "layer": "-1", "level": "-1", "network": "HVV", "railway": "subway", "railway:track_ref": "1", "voltage": "750", "osm_id": 653547645, "tile_500": "NO_E565000_N5951500_500", "tile_250": "NO_E565250_N5951500_250"}}, {"type": "Feature", "geometry": {"type": "LineString", "coordinates": [[567327.1229569674, 5953198.367111244], [567328.4053268736, 5953187.191463016], [567333.3237512114, 5953144.321847558], [567365.4845286702, 5952863.986454177]]}, "properties": {"alt_name": "Stammgleis Harksh\u00f6rn", "disused:railway": "rail", "electrified": "no", "gauge": "1435", "name": "Norderstedter Industriebahn", "passenger_lines": "1", "railway": "disused", "railway:traffic_mode": "freight", "usage": "industrial", "osm_id": 672021456, "tile_500": "NO_E567000_N5953000_500", "tile_250": "NO_E567250_N5953000_250"}}, {"type": "Feature", "geometry": {"type": "LineString", "coordinates": [[567202.9531327144, 5954853.586317562], [567198.6671659979, 5954883.8022977235], [567189.5544834499, 5954926.74549653], [567173.4523528601, 5954963.946968566], [567145.9451344308, 5955006.626614003], [567131.1939327526, 5955023.70713095], [567123.6007963644, 5955033.390404065], [567113.4741985558, 5955046.319964107]]}, "properties": {"electrified": "no", "gauge": "1435", "railway": "rail", "service": "spur", "usage": "freight", "osm_id": 676547046, "tile_500": "NO_E567000_N5954500_500", "tile_250": "NO_E567000_N5954750_250"}}, {"type": "Feature", "geometry": {"type": "LineString", "coordinates": [[567293.4129715462, 5953966.6240288615], [567291.524970941, 5953984.6120409295], [567287.1562422067, 5954020.512796116]]}, "properties": {"disused:railway": "rail", "electrified": "no", "railway": "disused", "service": "spur", "osm_id": 799462099, "tile_500": "NO_E567000_N5953500_500", "tile_250": "NO_E567250_N5953750_250"}}, {"type": "Feature", "geometry": {"type": "LineString", "coordinates": [[566078.2004175616, 5948165.766084825], [566048.6240553916, 5948161.021613128]]}, "properties": {"electrified": "rail", "frequency": "0", "gauge": "1435", "level": "-1", "network": "HVV", "railway": "subway", "voltage": "750", "osm_id": 928474560, "tile_500": "NO_E566000_N5948000_500", "tile_250": "NO_E566000_N5948000_250"}}, {"type": "Feature", "geometry": {"type": "LineString", "coordinates": [[566137.3754783876, 5948175.534083963], [566078.2004175616, 5948165.766084825]]}, "properties": {"electrified": "rail", "frequency": "0", "gauge": "1435", "layer": "-1", "level": "-1", "network": "HVV", "railway": "subway", "tunnel": "yes", "voltage": "750", "osm_id": 928474561, "tile_500": "NO_E566000_N5948000_500", "tile_250": "NO_E566000_N5948000_250"}}, {"type": "Feature", "geometry": {"type": "LineString", "coordinates": [[566085.9489733748, 5948150.797823196], [566140.6672323336, 5948158.989860394]]}, "properties": {"electrified": "rail", "frequency": "0", "gauge": "1435", "layer": "-1", "level": "-1", "network": "HVV", "railway": "subway", "tunnel": "yes", "voltage": "750", "osm_id": 928474562, "tile_500": "NO_E566000_N5948000_500", "tile_250": "NO_E566000_N5948000_250"}}, {"type": "Feature", "geometry": {"type": "LineString", "coordinates": [[566827.5638275975, 5948094.2833520835], [566842.3618975492, 5948086.437843209]]}, "properties": {"bridge": "yes", "layer": "1", "railway": "abandoned", "osm_id": 1015821020, "tile_500": "NO_E566500_N5948000_500", "tile_250": "NO_E566750_N5948000_250"}}, {"type": "Feature", "geometry": {"type": "LineString", "coordinates": [[565113.2107784955, 5955412.292855397], [565151.3415230617, 5955233.574458774], [565152.9139029643, 5955228.655834761], [565165.7118155584, 5955186.383445077], [565168.0832109821, 5955174.766223119], [565214.917062123, 5954956.356167043], [565220.7505264161, 5954931.100670138], [565225.6735383206, 5954908.224860435], [565229.9592155034, 5954892.750912673], [565235.5793229388, 5954876.672419562], [565242.479669136, 5954863.883157993]]}, "properties": {"gauge": "1435", "railway": "disused", "osm_id": 1056291266, "tile_500": "NO_E565000_N5955000_500", "tile_250": "NO_E565000_N5955000_250"}}, {"type": "Feature", "geometry": {"type": "LineString", "coordinates": [[564517.1734641984, 5956736.363745549], [564579.8934979874, 5956637.728566364]]}, "properties": {"railway": "platform_edge", "ref": "1", "osm_id": 1313607966, "tile_500": "NO_E564500_N5956500_500", "tile_250": "NO_E564500_N5956500_250"}}, {"type": "Feature", "geometry": {"type": "LineString", "coordinates": [[564591.8181043494, 5956604.121895412], [564634.4689225588, 5956537.869066691], [564656.0960889899, 5956504.173904591]]}, "properties": {"railway": "platform_edge", "ref": "2", "osm_id": 1313607967, "tile_500": "NO_E564500_N5956500_500", "tile_250": "NO_E564500_N5956500_250"}}, {"type": "Feature", "geometry": {"type": "LineString", "coordinates": [[565297.2866373486, 5954473.279933827], [565297.4554680284, 5954471.579821924], [565296.3077611234, 5954392.471590961]]}, "properties": {"railway": "platform_edge", "osm_id": 1313607968, "tile_500": "NO_E565000_N5954000_500", "tile_250": "NO_E565250_N5954250_250"}}, {"type": "Feature", "geometry": {"type": "LineString", "coordinates": [[565292.0492165015, 5954473.2069719285], [565291.7210018828, 5954471.666844115], [565290.5731983398, 5954392.558615264]]}, "properties": {"railway": "platform_edge", "osm_id": 1313607969, "tile_500": "NO_E565000_N5954000_500", "tile_250": "NO_E565250_N5954250_250"}}, {"type": "Feature", "geometry": {"type": "LineString", "coordinates": [[565231.9679881724, 5953848.13411279], [565235.0367731598, 5953805.893451142], [565237.1209405969, 5953789.36517858], [565240.5341559284, 5953769.795422], [565246.872996336, 5953732.507372702]]}, "properties": {"railway": "platform_edge", "osm_id": 1313607970, "tile_500": "NO_E565000_N5953500_500", "tile_250": "NO_E565000_N5953750_250"}}, {"type": "Feature", "geometry": {"type": "LineString", "coordinates": [[565239.3605299026, 5953851.285836488], [565242.7073568377, 5953808.036472232], [565244.6097102321, 5953791.77272496], [565247.5393446026, 5953772.340896413], [565252.752654153, 5953741.4909655955]]}, "properties": {"railway": "platform_edge", "osm_id": 1313607971, "tile_500": "NO_E565000_N5953500_500", "tile_250": "NO_E565000_N5953750_250"}}, {"type": "Feature", "geometry": {"type": "LineString", "coordinates": [[565289.6100497745, 5954413.864940737], [565289.6144560858, 5954413.074969919], [565289.1425062477, 5954400.539153095], [565289.012598776, 5954397.076780101], [565288.94108213, 5954395.106267104], [565288.3486666738, 5954381.745359004], [565288.051129466, 5954374.686561346], [565287.6162851172, 5954366.591020447], [565287.2522492767, 5954360.043148599], [565285.6326174926, 5954342.272685102], [565279.8903031297, 5954310.224227589], [565265.9948844342, 5954251.980069777], [565246.5726623167, 5954146.145856812], [565235.8867459692, 5954057.7583881235], [565232.8420413207, 5954009.134642894], [565231.0109209525, 5953949.634259774], [565232.4774827419, 5953859.41305719], [565233.0745197142, 5953850.1746605495], [565234.3844893926, 5953830.008145893], [565235.7313590487, 5953810.509777518], [565242.1261975439, 5953770.14026612], [565246.2329431371, 5953744.3600601265], [565258.6269828342, 5953666.475258742], [565266.7035592082, 5953622.880048439], [565279.9459747851, 5953551.405253274], [565287.0890308322, 5953514.217473186], [565301.3977242644, 5953439.664224259], [565314.6260078142, 5953364.061138388], [565327.6770707122, 5953298.837294758], [565358.1155417409, 5953127.702363852], [565371.7889144958, 5953067.6280779]]}, "properties": {"electrified": "no", "gauge": "1435", "maxspeed": "60", "network": "HVV", "operator": "AKN Eisenbahn GmbH", "passenger_lines": "2", "railway": "rail", "railway:preferred_direction": "forward", "railway:pzb": "yes", "ref": "9122", "usage": "branch", "osm_id": 1414087873, "tile_500": "NO_E565000_N5953500_500", "tile_250": "NO_E565250_N5953500_250"}}, {"type": "Feature", "geometry": {"type": "LineString", "coordinates": [[565298.8777899577, 5954412.580888953], [565297.9135837774, 5954390.390918279], [565297.3062935558, 5954384.729833358], [565297.0422939478, 5954381.421373063], [565296.3497614545, 5954374.301435896], [565295.7286824072, 5954366.3145716945], [565294.8898714727, 5954359.748957926], [565294.5504504942, 5954357.118207327], [565292.1436059318, 5954342.341122568], [565285.2434329268, 5954309.108171923], [565281.6365199733, 5954294.74834161], [565270.1468317283, 5954249.000153934], [565250.5327944272, 5954144.153573918], [565240.21550642, 5954057.729613433], [565237.6990025844, 5954009.558303343], [565236.4978742318, 5953948.887200408], [565237.31927293, 5953860.938095702], [565237.7500229306, 5953850.373248437], [565238.5424334055, 5953830.889418761], [565240.6869850124, 5953810.022379015], [565246.3193813504, 5953771.812066355], [565265.3200428257, 5953668.226380366], [565272.8830707541, 5953624.078797606], [565285.2580192493, 5953551.879797829], [565292.0823540435, 5953515.310709524], [565302.251633373, 5953460.795538634], [565307.6110851523, 5953431.817073487], [565361.5170117017, 5953128.45078895], [565375.1101490903, 5953067.507472151]]}, "properties": {"electrified": "no", "gauge": "1435", "maxspeed": "60", "network": "HVV", "operator": "AKN Eisenbahn GmbH", "passenger_lines": "2", "railway": "rail", "railway:preferred_direction": "backward", "railway:pzb": "yes", "ref": "9122", "usage": "branch", "osm_id": 1414087874, "tile_500": "NO_E565000_N5953500_500", "tile_250": "NO_E565250_N5953500_250"}}, {"type": "Feature", "geometry": {"type": "LineString", "coordinates": [[565517.9321298545, 5951148.2142472435], [565521.5056287326, 5951097.502005104]]}, "properties": {"electrified": "rail", "frequency": "0", "gauge": "1435", "layer": "-1", "level": "-1", "network": "HVV", "railway": "subway", "tunnel": "yes", "voltage": "750", "osm_id": 1446807717, "tile_500": "NO_E565500_N5951000_500", "tile_250": "NO_E565500_N5951000_250"}}, {"type": "Feature", "geometry": {"type": "LineString", "coordinates": [[567322.3143976373, 5953247.380580305], [567323.9078138516, 5953230.167273632]]}, "properties": {"abandoned:railway": "rail", "alt_name": "Stammgleis Harksh\u00f6rn", "electrified": "no", "gauge": "1435", "name": "Norderstedter Industriebahn", "passenger_lines": "1", "railway": "razed", "railway:traffic_mode": "freight", "usage": "industrial", "osm_id": 1458082205, "tile_500": "NO_E567000_N5953000_500", "tile_250": "NO_E567250_N5953000_250"}}, {"type": "Feature", "geometry": {"type": "LineString", "coordinates": [[567326.5710628857, 5953203.711417039], [567327.1229569674, 5953198.367111244]]}, "properties": {"abandoned:railway": "rail", "alt_name": "Stammgleis Harksh\u00f6rn", "electrified": "no", "gauge": "1435", "name": "Norderstedter Industriebahn", "passenger_lines": "1", "railway": "razed", "railway:traffic_mode": "freight", "usage": "industrial", "osm_id": 1489189098, "tile_500": "NO_E567000_N5953000_500", "tile_250": "NO_E567250_N5953000_250"}}]}