{"type": "FeatureCollection", "features": [{"type": "Feature", "geometry": {"type": "Point", "coordinates": [566215.2857104104, 5951139.376469591]}, "properties": {"bus": "yes", "name": "Harksheide, Uhlenkamp", "network": "HVV", "public_transport": "stop_position", "osm_id": 247472798, "tile_500": "NO_E566000_N5951000_500", "tile_250": "NO_E566000_N5951000_250", "amenity": "", "shop": "", "railway": ""}}, {"type": "Feature", "geometry": {"type": "Point", "coordinates": [566500.5813678453, 5951580.132414737]}, "properties": {"bus": "yes", "name": "Harksheide, Festsaal Falkenberg", "public_transport": "stop_position", "osm_id": 247651689, "tile_500": "NO_E566500_N5951500_500", "tile_250": "NO_E566500_N5951500_250", "amenity": "", "shop": "", "railway": ""}}, {"type": "Feature", "geometry": {"type": "Point", "coordinates": [565510.6904857937, 5951479.602686086]}, "properties": {"name": "Norderstedt Mitte", "network": "HVV", "public_transport": "stop_position", "railway": "stop", "subway": "yes", "wheelchair": "yes", "osm_id": 250976987, "tile_500": "NO_E565500_N5951000_500", "tile_250": "NO_E565500_N5951250_250", "amenity": "", "shop": ""}}, {"type": "Feature", "geometry": {"type": "Point", "coordinates": [565497.1824153208, 5951331.645246547]}, "properties": {"bus": "yes", "local_ref": "B", "name": "U A Norderstedt Mitte", "public_transport": "stop_position", "osm_id": 290921065, "tile_500": "NO_E565000_N5951000_500", "tile_250": "NO_E565250_N5951250_250", "amenity": "", "shop": "", "railway": ""}}, {"type": "Feature", "geometry": {"type": "Point", "coordinates": [565524.5432023671, 5951332.427852326]}, "properties": {"bus": "yes", "local_ref": "A", "name": "U A Norderstedt Mitte", "public_transport": "stop_position", "osm_id": 290921135, "tile_500": "NO_E565500_N5951000_500", "tile_250": "NO_E565500_N5951250_250", "amenity": "", "shop": "", "railway": ""}}, {"type": "Feature", "geometry": {"type": "Point", "coordinates": [565398.6108607278, 5951514.302472957]}, "properties": {"addr:housenumber": "78", "addr:street": "Rathausallee", "amenity": "police", "check_date": "2026-02-01", "contact:phone": "+49405353620", "name": "Norderstedt-Mitte", "wheelchair": "limited", "osm_id": 321455425, "tile_500": "NO_E565000_N5951500_500", "tile_250": "NO_E565250_N5951500_250", "shop": "", "public_transport": "", "railway": ""}}, {"type": "Feature", "geometry": {"type": "Point", "coordinates": [566588.4521598401, 5951068.702952344]}, "properties": {"addr:city": "Norderstedt", "addr:housenumber": "3-5", "addr:postcode": "22844", "addr:street": "Marktplatz", "amenity": "restaurant", "cuisine": "chinese", "email": "info@mongolei-norderstedt.de", "fax": "+49 40 55440568", "name": "China Restaurant Mongolei", "opening_hours": "Mo,We-Fr 12:00-15:00,17:00-22:00; Sa,Su,PH 12:00-22:00; Tu off", "operator": "Shixin Wang", "outdoor_seating": "no", "phone": "+49 40 55440598", "ref:vatin": "DE244536005", "reservation": "yes", "takeaway": "yes", "toilets:wheelchair": "no", "website": "https://mongolei-norderstedt.jimdo.com/", "website:menu": "https://s786fbcae954c12b2.jimcontent.com/download/version/1638723499/module/12444758335/name/Speisekarte%20online%2001a.pdf", "wheelchair": "limited", "osm_id": 356809795, "tile_500": "NO_E566500_N5951000_500", "tile_250": "NO_E566500_N5951000_250", "shop": "", "public_transport": "", "railway": ""}}, {"type": "Feature", "geometry": {"type": "Point", "coordinates": [565937.0534963598, 5951612.425514577]}, "properties": {"bus": "yes", "name": "Friedrichsgabe, Langenharmer Weg", "public_transport": "stop_position", "osm_id": 357537396, "tile_500": "NO_E565500_N5951500_500", "tile_250": "NO_E565750_N5951500_250", "amenity": "", "shop": "", "railway": ""}}, {"type": "Feature", "geometry": {"type": "Point", "coordinates": [565955.6399595303, 5951957.785818232]}, "properties": {"addr:city": "Norderstedt", "addr:housenumber": "363e", "addr:postcode": "22846", "addr:street": "Ulzburger Stra\u00dfe", "amenity": "bank", "atm": "yes", "email": "service@spk-suedholstein.de", "fax": "+49 4321 4087000", "name": "Sparkasse S\u00fcdholstein", "opening_hours": "Mo,Th 09:00-12:00,14:00-18:00; Tu,Fr 09:00-12:00,14:00-16:00; We 09:00-12:00", "operator": "Sparkasse S\u00fcdholstein", "phone": "+49 4321 4084444", "website": "https://www.spk-suedholstein.de/de/home/service/filiale-finden.html?n=true&stref=iconbox#details/10451", "wheelchair": "limited", "osm_id": 367030914, "tile_500": "NO_E565500_N5951500_500", "tile_250": "NO_E565750_N5951750_250", "shop": "", "public_transport": "", "railway": ""}}, {"type": "Feature", "geometry": {"type": "Point", "coordinates": [565346.3170300153, 5951394.513147841]}, "properties": {"addr:city": "Norderstedt", "addr:housenumber": "35-39", "addr:postcode": "22846", "addr:street": "Rathausallee", "brand": "EDEKA", "brand:wikidata": "Q701755", "brand:wikipedia": "de:Edeka", "currency:EUR": "yes", "email": "info@edeka.de", "name": "EDEKA", "opening_hours": "Mo-Sa 08:00-20:00", "operator": "EDEKA Hebig", "organic": "yes", "payment:cash": "yes", "payment:coins": "yes", "payment:contactless": "yes", "payment:credit_cards": "yes", "payment:debit_cards": "yes", "payment:girocard": "yes", "payment:mastercard": "yes", "payment:visa": "yes", "payment:visa_debit": "yes", "phone": "+49 176 413 133 42", "shop": "supermarket", "website": "https://www.edeka.de/eh/nord/edeka-hebig-rathausallee-35-39/index.jsp", "wheelchair": "yes", "osm_id": 444713589, "tile_500": "NO_E565000_N5951000_500", "tile_250": "NO_E565250_N5951250_250", "amenity": "", "public_transport": "", "railway": ""}}, {"type": "Feature", "geometry": {"type": "Point", "coordinates": [566030.1192979995, 5952063.8299599355]}, "properties": {"amenity": "restaurant", "indoor_seating": "yes", "name": "Flame", "outdoor_seating": "yes", "wheelchair": "no", "osm_id": 455482288, "tile_500": "NO_E566000_N5952000_500", "tile_250": "NO_E566000_N5952000_250", "shop": "", "public_transport": "", "railway": ""}}, {"type": "Feature", "geometry": {"type": "Point", "coordinates": [565343.0981393362, 5951376.297658482]}, "properties": {"addr:city": "Norderstedt", "addr:country": "DE", "addr:housenumber": "35", "addr:postcode": "22846", "addr:street": "Rathausallee", "amenity": "restaurant", "name": "Lenci's", "wheelchair": "yes", "osm_id": 484262671, "tile_500": "NO_E565000_N5951000_500", "tile_250": "NO_E565250_N5951250_250", "shop": "", "public_transport": "", "railway": ""}}, {"type": "Feature", "geometry": {"type": "Point", "coordinates": [565975.9149234218, 5952088.515182378]}, "properties": {"amenity": "restaurant", "cuisine": "indian", "diet:vegan": "yes", "indoor_seating": "yes", "name": "Tandoor", "outdoor_seating": "yes", "wheelchair": "limited", "osm_id": 601012675, "tile_500": "NO_E565500_N5952000_500", "tile_250": "NO_E565750_N5952000_250", "shop": "", "public_transport": "", "railway": ""}}, {"type": "Feature", "geometry": {"type": "Point", "coordinates": [566007.2158057713, 5952259.302018372]}, "properties": {"addr:city": "Norderstedt", "addr:housenumber": "328", "addr:postcode": "22846", "addr:street": "Ulzburger Stra\u00dfe", "amenity": "fast_food", "branch": "Norderstedt", "brand": "Smiley's", "brand:wikidata": "Q60998945", "cuisine": "pizza", "delivery": "yes", "diet:vegetarian": "yes", "drive_through": "no", "email": "info@smileys.de", "name": "Smiley's", "opening_hours": "Mo-Su 11:00-00:00", "operator": "Smiley's Franchise GmbH", "payment:cash": "yes", "payment:ec_cards": "yes", "phone": "+49 40 5261199", "ref:vatin": "DE813331054", "smoking": "no", "takeaway": "yes", "website": "https://www.smileys.de/bestellen/Norderstedt", "wheelchair": "yes", "osm_id": 601012677, "tile_500": "NO_E566000_N5952000_500", "tile_250": "NO_E566000_N5952250_250", "shop": "", "public_transport": "", "railway": ""}}, {"type": "Feature", "geometry": {"type": "Point", "coordinates": [565263.1185355128, 5951363.322908922]}, "properties": {"addr:city": "Norderstedt", "addr:housenumber": "110-112", "addr:postcode": "22846", "addr:street": "Buckh\u00f6rner Moor", "brand": "ALDI Nord", "brand:wikidata": "Q41171373", "brand:wikipedia": "en:Aldi", "currency:EUR": "yes", "name": "ALDI Nord", "opening_hours": "Wegen Umbau bis Oktober geschlossen", "organic": "yes", "payment:cash": "yes", "payment:coins": "yes", "payment:contactless": "yes", "payment:credit_cards": "yes", "payment:debit_cards": "yes", "payment:girocard": "yes", "payment:maestro": "yes", "payment:mastercard": "yes", "payment:visa": "yes", "payment:visa_debit": "yes", "shop": "supermarket", "website": "https://www.aldi-nord.de/tools/filialen-und-oeffnungszeiten/schleswig-holstein/norderstedt/buckhoerner-moor-110-112.html", "wheelchair": "yes", "osm_id": 706304083, "tile_500": "NO_E565000_N5951000_500", "tile_250": "NO_E565250_N5951250_250", "amenity": "", "public_transport": "", "railway": ""}}, {"type": "Feature", "geometry": {"type": "Point", "coordinates": [565479.7831498509, 5951432.626261511]}, "properties": {"addr:city": "Norderstedt", "addr:housenumber": "70", "addr:postcode": "22846", "addr:street": "Rathausallee", "amenity": "bank", "atm": "yes", "brand": "Sparda-Bank Hamburg", "brand:wikidata": "Q1231375", "brand:wikipedia": "de:Sparda-Bank (Deutschland)", "check_date:opening_hours": "2026-05-31", "email": "serviceteam@sparda-bank-hamburg.de", "fax": "+49 40 5500551111", "level": "0", "name": "Sparda-Bank Hamburg", "opening_hours": "Mo-Tu 09:00-14:00,15:00-18:00; We,Fr 09:00-14:00; Th 09:00-14:00,15:00-18:00", "operator": "Sparda-Bank Hamburg", "phone": "+49 40 5500550", "website": "https://www.sparda-bank-hamburg.de/hilfe-und-service/ihr-weg-zu-uns/standorte-uebersicht/standortsuche.html/l/norderstedt/rathausallee-70/808396", "wheelchair": "yes", "osm_id": 725257587, "tile_500": "NO_E565000_N5951000_500", "tile_250": "NO_E565250_N5951250_250", "shop": "", "public_transport": "", "railway": ""}}, {"type": "Feature", "geometry": {"type": "Point", "coordinates": [566015.1191401499, 5952089.356068885]}, "properties": {"addr:city": "Norderstedt", "addr:housenumber": "308-310", "addr:postcode": "22846", "addr:street": "Ulzburger Stra\u00dfe", "branch": "Ulzburger Meile", "brand": "PENNY", "brand:wikidata": "Q284688", "brand:wikipedia": "en:Penny (supermarket)", "currency:EUR": "yes", "name": "PENNY", "opening_hours": "Mo-Sa 07:00-22:00", "organic": "yes", "payment:cash": "yes", "payment:coins": "yes", "payment:contactless": "yes", "payment:credit_cards": "yes", "payment:debit_cards": "yes", "payment:girocard": "yes", "payment:mastercard": "yes", "payment:visa": "yes", "payment:visa_debit": "yes", "shop": "supermarket", "wheelchair": "yes", "osm_id": 732830904, "tile_500": "NO_E566000_N5952000_500", "tile_250": "NO_E566000_N5952000_250", "amenity": "", "public_transport": "", "railway": ""}}, {"type": "Feature", "geometry": {"type": "Point", "coordinates": [565507.7314293314, 5951346.369113598]}, "properties": {"addr:city": "Norderstedt", "addr:country": "DE", "addr:housenumber": "31-33", "addr:postcode": "22846", "addr:street": "Rathausallee", "check_date:opening_hours": "2026-02-15", "indoor_seating": "no", "level": "0", "name": "Bahn B\u00e4ckerei", "opening_hours": "Mo-Fr 04:00-18:00; Sa 06:00-15:00", "opening_hours:signed": "no", "outdoor_seating": "no", "shop": "bakery", "takeaway": "only", "wheelchair": "yes", "osm_id": 732874260, "tile_500": "NO_E565500_N5951000_500", "tile_250": "NO_E565500_N5951250_250", "amenity": "", "public_transport": "", "railway": ""}}, {"type": "Feature", "geometry": {"type": "Point", "coordinates": [565280.2558033846, 5951404.219963104]}, "properties": {"amenity": "cafe", "cuisine": "coffee_shop", "name": "Moorbek Cafe", "opening_hours": "Mo-Fr 07:00-19:00; Sa 07:00-17:00; Su,PH 08:00-17:00", "shop": "bakery", "wheelchair": "yes", "osm_id": 732874279, "tile_500": "NO_E565000_N5951000_500", "tile_250": "NO_E565250_N5951250_250", "public_transport": "", "railway": ""}}, {"type": "Feature", "geometry": {"type": "Point", "coordinates": [565502.8787227826, 5951478.792603174]}, "properties": {"name": "Norderstedt Mitte", "network": "HVV", "operator": "AKN Eisenbahn GmbH", "public_transport": "stop_position", "railway": "stop", "train": "yes", "wheelchair": "yes", "osm_id": 741740405, "tile_500": "NO_E565500_N5951000_500", "tile_250": "NO_E565500_N5951250_250", "amenity": "", "shop": ""}}, {"type": "Feature", "geometry": {"type": "Point", "coordinates": [565704.2695902259, 5951334.229127066]}, "properties": {"addr:city": "Norderstedt", "addr:housenumber": "13b", "addr:postcode": "22846", "addr:street": "Rathausallee", "amenity": "bank", "drive_through": "no", "name": "Norderstedter Bank", "opening_hours": "Mo-Fr 09:00-13:00, Mo,Tu,Fr 14:30-16:00, Th 14:30-18:00", "operator": "Volksbank Raiffeisenbank eG", "wheelchair": "yes", "osm_id": 773591716, "tile_500": "NO_E565500_N5951000_500", "tile_250": "NO_E565500_N5951250_250", "shop": "", "public_transport": "", "railway": ""}}, {"type": "Feature", "geometry": {"type": "Point", "coordinates": [565731.7282922794, 5951320.48221258]}, "properties": {"addr:city": "Norderstedt", "addr:housenumber": "11a", "addr:postcode": "22846", "addr:street": "Rathausallee", "amenity": "pharmacy", "check_date:opening_hours": "2025-05-03", "dispensing": "yes", "email": "Rathaus-Apo.Gericke@t-online.de", "fax": "+49 40 5254149", "healthcare": "pharmacy", "name": "Rathaus-Apotheke", "opening_hours": "Mo-Fr 08:30-18:30", "operator": "Hans Joachim Gericke", "phone": "+49 40 5251240", "website": "https://www.rathaus-apotheke-norderstedt.de/", "wheelchair": "yes", "osm_id": 773591718, "tile_500": "NO_E565500_N5951000_500", "tile_250": "NO_E565500_N5951250_250", "shop": "", "public_transport": "", "railway": ""}}, {"type": "Feature", "geometry": {"type": "Point", "coordinates": [566516.1634571316, 5951134.785914455]}, "properties": {"addr:city": "Norderstedt", "addr:country": "DE", "addr:housenumber": "33-41", "addr:postcode": "22844", "addr:street": "Alter Kirchenweg", "indoor_seating": "yes", "name": "Tackmann", "opening_hours": "Mo-Sa 07:00-18:00; Su 08:00-18:00", "outdoor_seating": "yes", "phone": "+49 40 53008288", "shop": "bakery", "toilets:wheelchair": "no", "website": "https://baeckerei-tackmann.de/location/norderstedt-coffee-house/", "wheelchair": "limited", "osm_id": 773595499, "tile_500": "NO_E566500_N5951000_500", "tile_250": "NO_E566500_N5951000_250", "amenity": "", "public_transport": "", "railway": ""}}, {"type": "Feature", "geometry": {"type": "Point", "coordinates": [565611.4794064325, 5951381.4117368655]}, "properties": {"addr:city": "Norderstedt", "addr:country": "DE", "addr:housenumber": "21a", "addr:postcode": "22846", "addr:street": "Rathausallee", "alt_name": "Haspa", "amenity": "bank", "atm": "yes", "brand": "Hamburger Sparkasse", "brand:wikidata": "Q1573140", "brand:wikipedia": "de:Hamburger Sparkasse", "name": "Hamburger Sparkasse", "opening_hours": "Mo,We,Fr 09:30-13:00; Tu,Th 09:30-18:00", "operator": "Hamburger Sparkasse", "short_name": "Haspa", "website": "https://www.haspa.de/", "wheelchair": "yes", "osm_id": 854778258, "tile_500": "NO_E565500_N5951000_500", "tile_250": "NO_E565500_N5951250_250", "shop": "", "public_transport": "", "railway": ""}}, {"type": "Feature", "geometry": {"type": "Point", "coordinates": [565523.1904507211, 5952008.752211566]}, "properties": {"addr:city": "Norderstedt", "addr:housenumber": "38", "addr:postcode": "22846", "addr:street": "Waldstra\u00dfe", "amenity": "fast_food", "check_date:opening_hours": "2023-01-14", "indoor_seating": "yes", "name": "Froque Croque", "opening_hours": "Mo-Su 11:00-22:00", "outdoor_seating": "no", "takeaway": "yes", "wheelchair": "limited", "osm_id": 970280413, "tile_500": "NO_E565500_N5952000_500", "tile_250": "NO_E565500_N5952000_250", "shop": "", "public_transport": "", "railway": ""}}, {"type": "Feature", "geometry": {"type": "Point", "coordinates": [565522.6319473548, 5951367.173574183]}, "properties": {"bus": "yes", "local_ref": "Nur zum Aussteigen", "name": "U A Norderstedt Mitte", "public_transport": "stop_position", "osm_id": 1605800106, "tile_500": "NO_E565500_N5951000_500", "tile_250": "NO_E565500_N5951250_250", "amenity": "", "shop": "", "railway": ""}}, {"type": "Feature", "geometry": {"type": "Point", "coordinates": [565640.5104296171, 5950824.324138969]}, "properties": {"bus": "yes", "name": "Garstedt, Ulzburger Stra\u00dfe 186", "public_transport": "stop_position", "osm_id": 1619054236, "tile_500": "NO_E565500_N5950500_500", "tile_250": "NO_E565500_N5950750_250", "amenity": "", "shop": "", "railway": ""}}, {"type": "Feature", "geometry": {"type": "Point", "coordinates": [566093.892501648, 5951648.614952934]}, "properties": {"bus": "yes", "name": "Friedrichsgabe, Langenharmer Weg", "public_transport": "stop_position", "osm_id": 1619071439, "tile_500": "NO_E566000_N5951500_500", "tile_250": "NO_E566000_N5951500_250", "amenity": "", "shop": "", "railway": ""}}, {"type": "Feature", "geometry": {"type": "Point", "coordinates": [566484.3419691565, 5951134.21252392]}, "properties": {"addr:city": "Norderstedt", "addr:country": "DE", "addr:housenumber": "33-41", "addr:postcode": "22844", "addr:street": "Alter Kirchenweg", "amenity": "fast_food", "cuisine": "kebab", "delivery": "yes", "drive_through": "no", "email": "hasan.kalkan@t-online.de", "indoor_seating": "yes", "name": "Kalkan Kebap House", "opening_hours": "Mo-Su 11:00-23:00", "operator": "Mustafa Yilmaz", "outdoor_seating": "yes", "payment:cash": "yes", "payment:coins": "yes", "payment:contactless": "yes", "payment:credit_cards": "yes", "payment:debit_cards": "yes", "payment:girocard": "yes", "payment:mastercard": "yes", "payment:visa": "yes", "payment:visa_debit": "yes", "phone": "+49 40 30980630", "takeaway": "yes", "website": "https://www.kalkankebaphouse.de/", "wheelchair": "yes", "osm_id": 1808645945, "tile_500": "NO_E566000_N5951000_500", "tile_250": "NO_E566250_N5951000_250", "shop": "", "public_transport": "", "railway": ""}}, {"type": "Feature", "geometry": {"type": "Point", "coordinates": [565957.4588900103, 5951728.8803187795]}, "properties": {"bus": "yes", "name": "Friedrichsgabe, Langenharmer Weg", "public_transport": "stop_position", "osm_id": 1852678654, "tile_500": "NO_E565500_N5951500_500", "tile_250": "NO_E565750_N5951500_250", "amenity": "", "shop": "", "railway": ""}}, {"type": "Feature", "geometry": {"type": "Point", "coordinates": [565998.1786098847, 5951955.357515951]}, "properties": {"addr:city": "Norderstedt", "addr:housenumber": "302", "addr:postcode": "22846", "addr:street": "Ulzburger Stra\u00dfe", "amenity": "restaurant", "cuisine": "sushi", "indoor_seating": "yes", "name": "Sushi Dreams", "outdoor_seating": "yes", "toilets:wheelchair": "yes", "wheelchair": "limited", "wheelchair:description": "Der Eingang hat eine Stufe, aber im Laden ist alles sehr breit.\nEs gibt sogar ein extra Behindertengerechtes WC.", "osm_id": 1893849853, "tile_500": "NO_E565500_N5951500_500", "tile_250": "NO_E565750_N5951750_250", "shop": "", "public_transport": "", "railway": ""}}, {"type": "Feature", "geometry": {"type": "Point", "coordinates": [565967.6294920938, 5952025.240625055]}, "properties": {"amenity": "fast_food", "asb": "thai", "name": "Ha Long", "osm_id": 1893849875, "tile_500": "NO_E565500_N5952000_500", "tile_250": "NO_E565750_N5952000_250", "shop": "", "public_transport": "", "railway": ""}}, {"type": "Feature", "geometry": {"type": "Point", "coordinates": [565744.1411971304, 5951224.750946339]}, "properties": {"addr:city": "Norderstedt", "addr:country": "DE", "addr:housenumber": "279", "addr:postcode": "22850", "addr:street": "Ulzburger Stra\u00dfe", "amenity": "restaurant", "cuisine": "greek", "email": "info@restaurant-naxos.de", "fax": "+49 40 30 98 26 10", "indoor_seating": "yes", "name": "Restaurant Naxos", "opening_hours": "Mo-Fr 11:30-14:30,17:00-23:00; Sa-Su 11:30-23:00", "outdoor_seating": "yes", "phone": "+49 40 525 77 33", "website": "https://www.restaurant-naxos.de/", "wheelchair": "limited", "osm_id": 2124838272, "tile_500": "NO_E565500_N5951000_500", "tile_250": "NO_E565500_N5951000_250", "shop": "", "public_transport": "", "railway": ""}}, {"type": "Feature", "geometry": {"type": "Point", "coordinates": [566005.4753144169, 5952229.133906754]}, "properties": {"addr:city": "Norderstedt", "addr:housenumber": "324", "addr:postcode": "22846", "addr:street": "Ulzburger Stra\u00dfe", "amenity": "cafe", "check_date": "2022-11-29", "cuisine": "cake;coffee;breakfast;pastry", "name": "B\u00e4ckerei Nitt - Caf\u00e9 an der Ulzburger Stra\u00dfe 324", "opening_hours": "Mo-Fr 06:00-18:00; Sa 06:00-12:00; Su 07:00-12:00", "operator": "B\u00e4ckerei-Konditorei Nitt", "outdoor_seating": "yes", "phone": "+49 40 81972950", "shop": "bakery", "toilets:wheelchair": "no", "website": "https://www.baeckerei-nitt.de/filialen/norderstedt/", "wheelchair": "yes", "osm_id": 2183115064, "tile_500": "NO_E566000_N5952000_500", "tile_250": "NO_E566000_N5952000_250", "public_transport": "", "railway": ""}}, {"type": "Feature", "geometry": {"type": "Point", "coordinates": [566899.4530518756, 5951470.947819611]}, "properties": {"bus": "yes", "name": "Harksheide, Waldschneise", "network": "HVV", "public_transport": "stop_position", "ref": "493", "osm_id": 2200184961, "tile_500": "NO_E566500_N5951000_500", "tile_250": "NO_E566750_N5951250_250", "amenity": "", "shop": "", "railway": ""}}, {"type": "Feature", "geometry": {"type": "Point", "coordinates": [566854.8322691275, 5951479.680914416]}, "properties": {"bus": "yes", "name": "Harksheide, Waldschneise", "network": "HVV", "public_transport": "stop_position", "ref": "493", "osm_id": 2799970301, "tile_500": "NO_E566500_N5951000_500", "tile_250": "NO_E566750_N5951250_250", "amenity": "", "shop": "", "railway": ""}}, {"type": "Feature", "geometry": {"type": "Point", "coordinates": [566447.1143544144, 5951594.129540299]}, "properties": {"bus": "yes", "name": "Harksheide, Festsaal Falkenberg", "public_transport": "stop_position", "osm_id": 2800120572, "tile_500": "NO_E566000_N5951500_500", "tile_250": "NO_E566250_N5951500_250", "amenity": "", "shop": "", "railway": ""}}, {"type": "Feature", "geometry": {"type": "Point", "coordinates": [565495.786912166, 5951368.712626401]}, "properties": {"bus": "yes", "local_ref": "C", "name": "U A Norderstedt Mitte", "public_transport": "stop_position", "osm_id": 3082186872, "tile_500": "NO_E565000_N5951000_500", "tile_250": "NO_E565250_N5951250_250", "amenity": "", "shop": "", "railway": ""}}, {"type": "Feature", "geometry": {"type": "Point", "coordinates": [565734.3990095721, 5951368.767094026]}, "properties": {"addr:city": "Norderstedt", "addr:housenumber": "10", "addr:postcode": "22846", "addr:street": "Rathausallee", "amenity": "restaurant", "indoor_seating": "yes", "name": "Fantasia bei Alberto", "outdoor_seating": "yes", "wheelchair": "yes", "osm_id": 3265265482, "tile_500": "NO_E565500_N5951000_500", "tile_250": "NO_E565500_N5951250_250", "shop": "", "public_transport": "", "railway": ""}}, {"type": "Feature", "geometry": {"type": "Point", "coordinates": [565295.9803567387, 5951400.499762202]}, "properties": {"addr:city": "Norderstedt", "addr:country": "DE", "addr:housenumber": "35/39", "addr:postcode": "22846", "addr:street": "Rathausallee", "amenity": "pharmacy", "dispensing": "yes", "email": "info@moorbek-apotheke.de", "fax": "+49 40 5261798", "healthcare": "pharmacy", "name": "Moorbek Apotheke", "opening_hours": "Mo-Fr 08:30-19:00; Sa 09:00-16:00", "operator": "Nicolas Ahlers", "phone": "+49 40 5227552", "website": "https://www.moorbek-apotheke.de/", "wheelchair": "yes", "osm_id": 3265265486, "tile_500": "NO_E565000_N5951000_500", "tile_250": "NO_E565250_N5951250_250", "shop": "", "public_transport": "", "railway": ""}}, {"type": "Feature", "geometry": {"type": "Point", "coordinates": [565582.0418301024, 5951436.179833349]}, "properties": {"addr:city": "Norderstedt", "addr:housenumber": "60", "addr:postcode": "22846", "addr:street": "Rathausallee", "amenity": "restaurant", "cuisine": "regional", "diet:vegetarian": "yes", "indoor_seating": "yes", "microbrewery": "yes", "name": "Hopfenliebe Brauhaus", "opening_hours": "Mo,Su off, Tu-Th 16:00-24:00, Fr,Sa 16:00-01:00", "outdoor_seating": "yes", "toilets:wheelchair": "no", "wheelchair": "limited", "osm_id": 3265265487, "tile_500": "NO_E565500_N5951000_500", "tile_250": "NO_E565500_N5951250_250", "shop": "", "public_transport": "", "railway": ""}}, {"type": "Feature", "geometry": {"type": "Point", "coordinates": [565786.1082209357, 5951343.598884839]}, "properties": {"amenity": "bank", "osm_id": 3265265490, "tile_500": "NO_E565500_N5951000_500", "tile_250": "NO_E565750_N5951250_250", "name": "", "shop": "", "public_transport": "", "railway": ""}}, {"type": "Feature", "geometry": {"type": "Point", "coordinates": [565593.5983210619, 5951391.5544998925]}, "properties": {"brand": "B\u00e4cker Andresen", "brand:wikidata": "Q111152310", "check_date": "2026-02-15", "check_date:opening_hours": "2026-02-15", "indoor_seating": "yes", "name": "B\u00e4ckerei Andresen", "opening_hours": "Mo-Fr 06:00-18:00; Sa 07:00-13:00; Su 07:00-12:00", "outdoor_seating": "yes", "shop": "bakery", "wheelchair": "yes", "osm_id": 3265295258, "tile_500": "NO_E565500_N5951000_500", "tile_250": "NO_E565500_N5951250_250", "amenity": "", "public_transport": "", "railway": ""}}, {"type": "Feature", "geometry": {"type": "Point", "coordinates": [565495.1976465926, 5951478.551843527]}, "properties": {"name": "Norderstedt Mitte", "network": "HVV", "public_transport": "stop_position", "railway": "stop", "subway": "yes", "osm_id": 4269545582, "tile_500": "NO_E565000_N5951000_500", "tile_250": "NO_E565250_N5951250_250", "amenity": "", "shop": ""}}, {"type": "Feature", "geometry": {"type": "Point", "coordinates": [565786.6026690815, 5951238.1757435985]}, "properties": {"bus": "yes", "name": "Harksheide, Alter Kirchenweg", "public_transport": "stop_position", "osm_id": 4365149425, "tile_500": "NO_E565500_N5951000_500", "tile_250": "NO_E565750_N5951000_250", "amenity": "", "shop": "", "railway": ""}}, {"type": "Feature", "geometry": {"type": "Point", "coordinates": [565782.2414488458, 5951329.80259553]}, "properties": {"bus": "yes", "name": "Harksheide, Alter Kirchenweg", "public_transport": "stop_position", "osm_id": 4365149426, "tile_500": "NO_E565500_N5951000_500", "tile_250": "NO_E565750_N5951250_250", "amenity": "", "shop": "", "railway": ""}}, {"type": "Feature", "geometry": {"type": "Point", "coordinates": [565851.2139498335, 5951356.496186701]}, "properties": {"bus": "yes", "name": "Harksheide, Alter Kirchenweg", "public_transport": "stop_position", "osm_id": 4365149427, "tile_500": "NO_E565500_N5951000_500", "tile_250": "NO_E565750_N5951250_250", "amenity": "", "shop": "", "railway": ""}}, {"type": "Feature", "geometry": {"type": "Point", "coordinates": [566536.8357446601, 5951454.118750373]}, "properties": {"bus": "yes", "name": "Harksheide, Festsaal Falkenberg", "public_transport": "stop_position", "osm_id": 4365149428, "tile_500": "NO_E566500_N5951000_500", "tile_250": "NO_E566500_N5951250_250", "amenity": "", "shop": "", "railway": ""}}, {"type": "Feature", "geometry": {"type": "Point", "coordinates": [565565.8620649651, 5951361.44613107]}, "properties": {"addr:city": "Norderstedt", "addr:country": "DE", "addr:housenumber": "29a", "addr:postcode": "22846", "addr:street": "Rathausallee", "amenity": "restaurant", "contact:phone": "+49 40 22868968", "contact:website": "https://www.san-burrito.de/", "cuisine": "mexican", "indoor_seating": "yes", "name": "Cantina Americana", "opening_hours": "Tu-Fr 11:30-22:00; Sa-Su 17:00-22:00", "outdoor_seating": "yes", "wheelchair": "yes", "osm_id": 5612884712, "tile_500": "NO_E565500_N5951000_500", "tile_250": "NO_E565500_N5951250_250", "shop": "", "public_transport": "", "railway": ""}}, {"type": "Feature", "geometry": {"type": "Point", "coordinates": [565545.7792183186, 5951313.229665327]}, "properties": {"addr:city": "Norderstedt", "addr:country": "DE", "addr:housenumber": "31a", "addr:postcode": "22846", "addr:street": "Rathausallee", "brand": "REWE", "brand:wikidata": "Q16968817", "brand:wikipedia": "en:REWE", "check_date:opening_hours": "2026-02-15", "name": "REWE City", "opening_hours": "Mo-Sa 07:00-22:00; PH off", "operator": "REWE Markt GmbH", "organic": "yes", "phone": "+49 40 58972187", "shop": "supermarket", "website": "https://www.rewe.de/marktseite/norderstedt/531398/rewe-markt-rathausallee-31-a/", "wheelchair": "yes", "osm_id": 6277439143, "tile_500": "NO_E565500_N5951000_500", "tile_250": "NO_E565500_N5951250_250", "amenity": "", "public_transport": "", "railway": ""}}, {"type": "Feature", "geometry": {"type": "Point", "coordinates": [566595.8798413402, 5952198.7899137065]}, "properties": {"bus": "yes", "name": "Harksheide, Grootkoppelstra\u00dfe", "public_transport": "stop_position", "osm_id": 7308770743, "tile_500": "NO_E566500_N5952000_500", "tile_250": "NO_E566500_N5952000_250", "amenity": "", "shop": "", "railway": ""}}, {"type": "Feature", "geometry": {"type": "Point", "coordinates": [566544.6938154973, 5951873.7824061895]}, "properties": {"bus": "yes", "name": "Harksheide, Falkenbergstra\u00dfe", "public_transport": "stop_position", "osm_id": 7308770744, "tile_500": "NO_E566500_N5951500_500", "tile_250": "NO_E566500_N5951750_250", "amenity": "", "shop": "", "railway": ""}}, {"type": "Feature", "geometry": {"type": "Point", "coordinates": [566706.0292277758, 5951795.267769575]}, "properties": {"bus": "yes", "name": "Harksheide, Falkenhorst", "old_name": "Harksheide, Am Falkenhorst", "public_transport": "stop_position", "osm_id": 7308770745, "tile_500": "NO_E566500_N5951500_500", "tile_250": "NO_E566500_N5951750_250", "amenity": "", "shop": "", "railway": ""}}, {"type": "Feature", "geometry": {"type": "Point", "coordinates": [566617.654994441, 5951797.717336966]}, "properties": {"bus": "yes", "name": "Harksheide, Falkenhorst", "old_name": "Harksheide, Am Falkenhorst", "public_transport": "stop_position", "osm_id": 7308770746, "tile_500": "NO_E566500_N5951500_500", "tile_250": "NO_E566500_N5951750_250", "amenity": "", "shop": "", "railway": ""}}, {"type": "Feature", "geometry": {"type": "Point", "coordinates": [566958.1793267068, 5951277.370328021]}, "properties": {"bus": "yes", "name": "Harksheide, Romintener Weg", "public_transport": "stop_position", "osm_id": 7308770751, "tile_500": "NO_E566500_N5951000_500", "tile_250": "NO_E566750_N5951250_250", "amenity": "", "shop": "", "railway": ""}}, {"type": "Feature", "geometry": {"type": "Point", "coordinates": [566577.5156085312, 5951120.100182447]}, "properties": {"bus": "yes", "name": "Harksheide, Markt", "public_transport": "stop_position", "osm_id": 7308770752, "tile_500": "NO_E566500_N5951000_500", "tile_250": "NO_E566500_N5951000_250", "amenity": "", "shop": "", "railway": ""}}, {"type": "Feature", "geometry": {"type": "Point", "coordinates": [566611.7234969903, 5951120.00706494]}, "properties": {"bus": "yes", "name": "Harksheide, Markt", "public_transport": "stop_position", "osm_id": 7308770753, "tile_500": "NO_E566500_N5951000_500", "tile_250": "NO_E566500_N5951000_250", "amenity": "", "shop": "", "railway": ""}}, {"type": "Feature", "geometry": {"type": "Point", "coordinates": [565549.6909212488, 5952006.574328279]}, "properties": {"amenity": "fast_food", "cuisine": "kebab", "delivery": "yes", "name": "Manavgat", "website": "https://www.manavgat-doener.de", "osm_id": 7411794411, "tile_500": "NO_E565500_N5952000_500", "tile_250": "NO_E565500_N5952000_250", "shop": "", "public_transport": "", "railway": ""}}, {"type": "Feature", "geometry": {"type": "Point", "coordinates": [566516.7207913467, 5951147.167283189]}, "properties": {"amenity": "fast_food", "osm_id": 8044778669, "tile_500": "NO_E566500_N5951000_500", "tile_250": "NO_E566500_N5951000_250", "name": "", "shop": "", "public_transport": "", "railway": ""}}, {"type": "Feature", "geometry": {"type": "Point", "coordinates": [565873.0903876681, 5951266.851079924]}, "properties": {"bus": "yes", "name": "Harksheide, Alter Kirchenweg", "public_transport": "stop_position", "osm_id": 8328616465, "tile_500": "NO_E565500_N5951000_500", "tile_250": "NO_E565750_N5951250_250", "amenity": "", "shop": "", "railway": ""}}, {"type": "Feature", "geometry": {"type": "Point", "coordinates": [565639.5476376379, 5950763.344915933]}, "properties": {"bus": "yes", "name": "Garstedt, Ulzburger Stra\u00dfe 186", "public_transport": "stop_position", "osm_id": 8328616470, "tile_500": "NO_E565500_N5950500_500", "tile_250": "NO_E565500_N5950750_250", "amenity": "", "shop": "", "railway": ""}}, {"type": "Feature", "geometry": {"type": "Point", "coordinates": [566703.9174890263, 5950800.963943346]}, "properties": {"bus": "yes", "name": "Harksheide, Falkenbergschulen", "public_transport": "stop_position", "osm_id": 8496131505, "tile_500": "NO_E566500_N5950500_500", "tile_250": "NO_E566500_N5950750_250", "amenity": "", "shop": "", "railway": ""}}, {"type": "Feature", "geometry": {"type": "Point", "coordinates": [566495.4473420097, 5950993.020853785]}, "properties": {"bus": "yes", "name": "Harksheide, Fadens Tannen", "public_transport": "stop_position", "osm_id": 8497170858, "tile_500": "NO_E566000_N5950500_500", "tile_250": "NO_E566250_N5950750_250", "amenity": "", "shop": "", "railway": ""}}, {"type": "Feature", "geometry": {"type": "Point", "coordinates": [566518.1083100709, 5951155.476731642]}, "properties": {"addr:city": "Norderstedt", "addr:housenumber": "33", "addr:postcode": "22844", "addr:street": "Alter Kirchenweg", "contact:facebook": "https://www.facebook.com/Demir-B%C3%A4ckerei-109285000826968/", "contact:mobile": "+49 176 22644566", "email": "tatliciburcin81@gmail.com", "name": "Demir", "opening_hours": "Mo-Fr 07:00-18:00; Sa 07:00-17:00; Su 08:00-16:00", "operator": "Burcin Tatlici", "payment:credit_cards": "no", "payment:debit_cards": "yes", "phone": "+49 40 30850238", "shop": "bakery", "wheelchair": "yes", "osm_id": 9738688923, "tile_500": "NO_E566500_N5951000_500", "tile_250": "NO_E566500_N5951000_250", "amenity": "", "public_transport": "", "railway": ""}}, {"type": "Feature", "geometry": {"type": "Point", "coordinates": [565472.5682313235, 5951433.037422403]}, "properties": {"amenity": "restaurant", "check_date:opening_hours": "2026-05-31", "cuisine": "italian", "indoor_seating": "yes", "name": "La Piazza", "opening_hours": "Mo-Fr 12:00-14:30,17:00-22:00; Sa 17:00+; Su off", "outdoor_seating": "yes", "payment:credit_cards": "no", "payment:debit_cards": "yes", "osm_id": 9930293828, "tile_500": "NO_E565000_N5951000_500", "tile_250": "NO_E565250_N5951250_250", "shop": "", "public_transport": "", "railway": ""}}, {"type": "Feature", "geometry": {"type": "Point", "coordinates": [566541.2000234177, 5950890.764926918]}, "properties": {"amenity": "restaurant", "name": "Sportlerheim", "osm_id": 10280980615, "tile_500": "NO_E566500_N5950500_500", "tile_250": "NO_E566500_N5950750_250", "shop": "", "public_transport": "", "railway": ""}}, {"type": "Feature", "geometry": {"type": "Point", "coordinates": [566354.9126902263, 5951089.262466712]}, "properties": {"amenity": "kindergarten", "name": "KiTa Fl\u00fcgge Aadlers", "osm_id": 11302338939, "tile_500": "NO_E566000_N5951000_500", "tile_250": "NO_E566250_N5951000_250", "shop": "", "public_transport": "", "railway": ""}}, {"type": "Feature", "geometry": {"type": "Point", "coordinates": [565289.4179256872, 5951391.974048513]}, "properties": {"brand": "Denns BioMarkt", "brand:wikidata": "Q48883773", "contact:website": "https://www.biomarkt.de/norderstedt-rathausallee-35-39/marktseite/", "name": "Denns BioMarkt", "opening_hours": "Mo-Sa 08:00-20:00; Su, PH off", "operator": "Dennree GmbH", "operator:wikidata": "Q1189641", "organic": "only", "shop": "supermarket", "osm_id": 11933236063, "tile_500": "NO_E565000_N5951000_500", "tile_250": "NO_E565250_N5951250_250", "amenity": "", "public_transport": "", "railway": ""}}, {"type": "Feature", "geometry": {"type": "Point", "coordinates": [566563.0237520095, 5951066.56181085]}, "properties": {"amenity": "bank", "name": "VR Bank in Holstein", "opening_hours": "Mo-We 09:00-12:30, Tu 14:30-18:00", "osm_id": 11954127647, "tile_500": "NO_E566500_N5951000_500", "tile_250": "NO_E566500_N5951000_250", "shop": "", "public_transport": "", "railway": ""}}, {"type": "Feature", "geometry": {"type": "Point", "coordinates": [565512.9506992716, 5952010.756736921]}, "properties": {"amenity": "restaurant", "cuisine": "greek", "name": "Ilios", "website": "https://www.tavernailios.de/", "osm_id": 12138038628, "tile_500": "NO_E565500_N5952000_500", "tile_250": "NO_E565500_N5952000_250", "shop": "", "public_transport": "", "railway": ""}}, {"type": "Feature", "geometry": {"type": "Point", "coordinates": [565979.1747640455, 5951720.161524838]}, "properties": {"addr:housenumber": "274", "addr:postcode": "22846", "addr:street": "Ulzburger Stra\u00dfe", "amenity": "fuel", "branch": "Norderstedt", "brand": "star", "brand:wikidata": "Q89432390", "brand:wikipedia": "de:Orlen Deutschland", "compressed_air": "yes", "fax": "+49 40 5267282", "fuel:diesel": "yes", "fuel:e10": "yes", "fuel:lpg": "yes", "fuel:octane_95": "yes", "fuel:octane_98": "yes", "name": "star", "opening_hours": "Mo-Fr 06:00-22:00; Sa-Su 07:00-22:00", "operator": "ORLEN Deutschland GmbH", "phone": "+49 40 5229412", "website": "https://www.star.de/tanken-und-laden/tankstellenfinder#!/l/norderstedt/ulzburger-strasse-274/1827608", "wheelchair": "yes", "osm_id": 12625592277, "tile_500": "NO_E565500_N5951500_500", "tile_250": "NO_E565750_N5951500_250", "shop": "", "public_transport": "", "railway": ""}}, {"type": "Feature", "geometry": {"type": "Point", "coordinates": [566219.7169121713, 5951144.913588485]}, "properties": {"bus": "yes", "name": "Harksheide, Uhlenkamp", "network": "HVV", "public_transport": "stop_position", "osm_id": 12768741582, "tile_500": "NO_E566000_N5951000_500", "tile_250": "NO_E566000_N5951000_250", "amenity": "", "shop": "", "railway": ""}}, {"type": "Feature", "geometry": {"type": "LineString", "coordinates": [[565422.8862444304, 5951668.563084248], [565429.8345479266, 5951706.648156185], [565397.1130516097, 5951717.886560176], [565391.8973166028, 5951702.302577513], [565414.7378994668, 5951694.75409537], [565410.5268470184, 5951671.5063521415], [565422.8862444304, 5951668.563084248]]}, "properties": {"addr:city": "Norderstedt", "addr:country": "DE", "addr:housenumber": "11", "addr:postcode": "22846", "addr:street": "Storchengang", "amenity": "kindergarten", "building": "yes", "check_date": "2024-05-20", "name": "Integrative Kindertagesst\u00e4tte Storchengang", "wheelchair": "yes", "osm_id": 27540763, "tile_500": "NO_E565000_N5951500_500", "tile_250": "NO_E565250_N5951500_250", "shop": "", "public_transport": "", "railway": ""}}, {"type": "Feature", "geometry": {"type": "LineString", "coordinates": [[566597.6586780644, 5951105.720354319], [566598.5489934172, 5951070.437440411], [566543.2280970927, 5951072.734826796], [566542.8874580634, 5951056.250584126], [566614.2214848155, 5951056.59509917], [566613.6498902983, 5951092.672569538], [566625.7132783852, 5951105.629023704], [566597.6586780644, 5951105.720354319]]}, "properties": {"addr:city": "Norderstedt", "addr:postcode": "22844", "addr:street": "Marktplatz", "building": "yes", "name": "Marktplatz", "roof:shape": "flat", "shop": "mall", "wheelchair": "limited", "osm_id": 29341909, "tile_500": "NO_E566500_N5951000_500", "tile_250": "NO_E566500_N5951000_250", "amenity": "", "public_transport": "", "railway": ""}}, {"type": "Feature", "geometry": {"type": "LineString", "coordinates": [[566506.3761888847, 5951082.338127861], [566531.3310123753, 5951077.829299093], [566530.4980230278, 5951037.859646121], [566505.3723540743, 5951034.376720389], [566506.3761888847, 5951082.338127861]]}, "properties": {"addr:city": "Norderstedt", "addr:housenumber": "13", "addr:postcode": "22844", "addr:street": "Marktplatz", "brand": "Penny", "brand:wikidata": "Q284688", "brand:wikipedia": "en:Penny (supermarket)", "building": "yes", "check_date:opening_hours": "2024-06-03", "currency:EUR": "yes", "name": "PENNY", "opening_hours": "Mo-Sa 07:00-22:00", "operator": "Penny", "organic": "yes", "payment:cash": "yes", "payment:coins": "yes", "payment:contactless": "yes", "payment:credit_cards": "yes", "payment:debit_cards": "yes", "payment:girocard": "yes", "payment:mastercard": "yes", "payment:visa": "yes", "payment:visa_debit": "yes", "shop": "supermarket", "wheelchair": "yes", "osm_id": 29341944, "tile_500": "NO_E566500_N5951000_500", "tile_250": "NO_E566500_N5951000_250", "amenity": "", "public_transport": "", "railway": ""}}, {"type": "Feature", "geometry": {"type": "LineString", "coordinates": [[566469.4606645807, 5951168.217884913], [566520.5371859488, 5951167.172491588], [566519.8244234292, 5951132.690260122], [566468.7407689337, 5951133.746695468], [566469.4606645807, 5951168.217884913]]}, "properties": {"building": "yes", "shop": "mall", "osm_id": 31867159, "tile_500": "NO_E566000_N5951000_500", "tile_250": "NO_E566250_N5951000_250", "name": "", "amenity": "", "public_transport": "", "railway": ""}}, {"type": "Feature", "geometry": {"type": "LineString", "coordinates": [[565271.6460439328, 5951418.999444707], [565358.4486718426, 5951397.541812102], [565349.2843450911, 5951360.638881437], [565264.6316033218, 5951390.76127711], [565271.6460439328, 5951418.999444707]]}, "properties": {"addr:city": "Norderstedt", "addr:housenumber": "35-39", "addr:postcode": "22846", "addr:street": "Rathausallee", "building": "yes", "name": "MOORBEK PASSAGE", "opening_hours": "Mo - Fr 9:00 - 19:00; Sa 9:00 - 16:00", "operator": "isn immobilien service norderstedt gmbh", "phone": "+49 40 535 355 0", "shop": "mall", "website": "https://www.moorbek-passage.de/", "wheelchair": "yes", "osm_id": 37645115, "tile_500": "NO_E565000_N5951000_500", "tile_250": "NO_E565250_N5951250_250", "amenity": "", "public_transport": "", "railway": ""}}, {"type": "Feature", "geometry": {"type": "LineString", "coordinates": [[565463.5983709404, 5951323.120474088], [565489.2875309397, 5951324.947758425], [565487.6658447303, 5951347.479897235], [565461.8082448246, 5951348.743621973], [565463.5983709404, 5951323.120474088]]}, "properties": {"addr:city": "Norderstedt", "addr:housenumber": "33", "addr:postcode": "22846", "addr:street": "Rathausallee", "amenity": "bank", "atm": "yes", "branch": "Filiale 532", "brand": "Postbank", "brand:wikidata": "Q708835", "building": "yes", "check_date:opening_hours": "2025-05-23", "name": "Postbank", "opening_hours": "Mo-Fr 08:30-18:00, Sa 09:00-13:00", "wheelchair": "yes", "osm_id": 41081832, "tile_500": "NO_E565000_N5951000_500", "tile_250": "NO_E565250_N5951250_250", "shop": "", "public_transport": "", "railway": ""}}, {"type": "Feature", "geometry": {"type": "LineString", "coordinates": [[565528.1695992409, 5952083.741098995], [565506.5535950756, 5952075.093790913], [565503.7224241336, 5952112.864426369], [565538.3726580464, 5952096.635399203], [565528.1695992409, 5952083.741098995]]}, "properties": {"addr:housenumber": "42", "addr:street": "Waldstra\u00dfe", "amenity": "kindergarten", "building": "kindergarten", "check_date": "2024-07-28", "name": "Kindertagesst\u00e4tte Kleine Strolche", "operator": "AWO", "osm_id": 83361311, "tile_500": "NO_E565500_N5952000_500", "tile_250": "NO_E565500_N5952000_250", "shop": "", "public_transport": "", "railway": ""}}, {"type": "Feature", "geometry": {"type": "LineString", "coordinates": [[565636.2632380298, 5951477.185076308], [565634.8443812596, 5951495.079987003], [565662.7652736352, 5951497.284407547], [565673.1104724914, 5951520.373458145], [565641.2152033062, 5951510.168557505], [565639.3879587838, 5951533.187384674], [565599.16382898, 5951551.607753077], [565593.0163949345, 5951519.119455766], [565549.4891614332, 5951527.312701765], [565542.5231603312, 5951521.729681996], [565555.0955344456, 5951509.721079048], [565547.0391707584, 5951471.6092099855], [565587.4975544058, 5951458.187764229], [565575.8385871744, 5951440.254691005], [565538.7698668363, 5951445.422716434], [565533.7488311646, 5951423.943896698], [565598.5216097478, 5951426.618304485], [565613.0879124891, 5951473.6340291295], [565692.0356675214, 5951441.768938042], [565698.7304741346, 5951455.871804829], [565636.2632380298, 5951477.185076308]]}, "properties": {"addr:city": "Norderstedt", "addr:country": "DE", "addr:housenumber": "50", "addr:postcode": "22846", "addr:street": "Rathausallee", "amenity": "townhall", "building": "yes", "name": "Rathaus Norderstedt", "opening_hours": "Mo,Tu,Th,Fr 08:30-12:00, Th 14:30-18:00", "toilets:wheelchair": "no", "wheelchair": "yes", "wheelchair:description": "Rathausplatz Gefahrenquelle f\u00fcr Rollstuhllenkr\u00e4der Adaptiv u.\u00e4.: Festfahr- / Sturzgefahr auch bei Langsamfahrt", "osm_id": 125480925, "tile_500": "NO_E565500_N5951000_500", "tile_250": "NO_E565500_N5951250_250", "shop": "", "public_transport": "", "railway": ""}}, {"type": "Feature", "geometry": {"type": "LineString", "coordinates": [[566329.8940100963, 5951609.662324161], [566483.1379833918, 5951568.61331362], [566468.1236281964, 5951530.089538216], [566520.284667822, 5951519.790612703], [566519.2019452048, 5951436.910813484], [566427.6554200178, 5951477.841563231], [566344.6446203112, 5951279.871056944], [566263.6785071116, 5951313.877744497], [566216.6541748254, 5951315.149991879], [566329.8940100963, 5951609.662324161]]}, "properties": {"addr:city": "Norderstedt", "addr:country": "DE", "addr:housenumber": "25", "addr:postcode": "22844", "addr:street": "Falkenbergstra\u00dfe", "amenity": "school", "name": "Gymnasium Harksheide", "school:de": "Gymnasium", "toilets:wheelchair": "yes", "website": "https://www.gymnasium-harksheide.de/", "wheelchair": "no", "osm_id": 150069507, "tile_500": "NO_E566000_N5951000_500", "tile_250": "NO_E566250_N5951250_250", "shop": "", "public_transport": "", "railway": ""}}, {"type": "Feature", "geometry": {"type": "LineString", "coordinates": [[566561.0687859918, 5950622.057416424], [566597.5673931376, 5950701.355905487], [566633.6508562503, 5950685.177287463], [566622.367411206, 5950662.784910006], [566700.4289024719, 5950618.32778195]]}, "properties": {"addr:city": "Norderstedt", "addr:country": "DE", "addr:housenumber": "26", "addr:postcode": "22844", "addr:street": "Am Exerzierplatz", "amenity": "school", "name": "Grundschule Falkenberg", "wheelchair": "no", "wikidata": "Q133931604", "osm_id": 233223769, "tile_500": "NO_E566500_N5950500_500", "tile_250": "NO_E566500_N5950500_250", "shop": "", "public_transport": "", "railway": ""}}, {"type": "Feature", "geometry": {"type": "LineString", "coordinates": [[566562.3597017081, 5950616.3674657345], [566561.0687859918, 5950622.057416424]]}, "properties": {"addr:city": "Norderstedt", "addr:country": "DE", "addr:housenumber": "26", "addr:postcode": "22844", "addr:street": "Am Exerzierplatz", "amenity": "school", "name": "Grundschule Falkenberg", "wheelchair": "no", "wikidata": "Q133931604", "osm_id": 233223769, "tile_500": "NO_E566500_N5950500_500", "tile_250": "NO_E566500_N5950500_250", "shop": "", "public_transport": "", "railway": ""}}, {"type": "Feature", "geometry": {"type": "LineString", "coordinates": [[566638.7437401005, 5951226.210649857], [566674.2918254221, 5951227.461179689], [566683.9725449937, 5951244.512142391], [566652.5155692792, 5951246.680073695], [566638.7437401005, 5951226.210649857]]}, "properties": {"addr:housenumber": "2 c", "addr:postcode": "22844", "addr:street": "Kirchenplatz", "amenity": "kindergarten", "building": "yes", "check_date": "2024-04-15", "name": "Evangelische Kindertagesst\u00e4tte Falkenberg", "osm_id": 233254041, "tile_500": "NO_E566500_N5951000_500", "tile_250": "NO_E566500_N5951000_250", "shop": "", "public_transport": "", "railway": ""}}, {"type": "Feature", "geometry": {"type": "LineString", "coordinates": [[565487.5036506553, 5951388.425621681], [565528.4018358967, 5951389.875698459], [565528.678709199, 5951307.182419537], [565510.7077216395, 5951298.697359766], [565493.1275526739, 5951312.817107559], [565487.5036506553, 5951388.425621681]]}, "properties": {"amenity": "bus_station", "area": "yes", "bus": "yes", "name": "Norderstedt Mitte", "network": "HVV", "public_transport": "station", "wheelchair": "yes", "osm_id": 262406301, "tile_500": "NO_E565500_N5951000_500", "tile_250": "NO_E565500_N5951250_250", "shop": "", "railway": ""}}, {"type": "Feature", "geometry": {"type": "LineString", "coordinates": [[565484.7728001362, 5951611.031108214], [565504.51453779, 5951612.230266734], [565515.9272826018, 5951426.065088922], [565496.1847621215, 5951424.865888523], [565484.7728001362, 5951611.031108214]]}, "properties": {"akn:barrier_free": "dependent", "akn:barrier_free_psv_types": "A", "hha_ref": "NO", "hvv:barrier_free": "dependent", "hvv:barrier_free_psv_types": "U", "hvv:psv_type": "U;A", "name": "Norderstedt Mitte", "network": "Hamburger Verkehrsverbund", "network:short": "HVV", "network:wikidata": "Q896916", "operator": "Hamburger Hochbahn AG", "public_transport": "station", "railway": "station", "railway:ref": "ANDM", "station": "subway", "subway": "yes", "toilets:wheelchair": "yes", "train": "yes", "uic_name": "Norderstedt Mitte", "uic_ref": "8079027", "wheelchair": "yes", "wikidata": "Q801264", "wikipedia": "en:Norderstedt Mitte station", "osm_id": 262406302, "tile_500": "NO_E565500_N5951500_500", "tile_250": "NO_E565500_N5951500_250", "amenity": "", "shop": ""}}, {"type": "Feature", "geometry": {"type": "LineString", "coordinates": [[565417.6038892942, 5951182.855293828], [565329.7018877184, 5951262.102206785], [565387.3595042065, 5951313.600726977], [565409.727367896, 5951364.719144394], [565455.6875793089, 5951364.881641398], [565465.2542087825, 5951263.590972685], [565417.6038892942, 5951182.855293828]]}, "properties": {"addr:city": "Norderstedt", "addr:country": "DE", "addr:housenumber": "89", "addr:postcode": "22846", "addr:street": "Heidbergstra\u00dfe", "amenity": "school", "name": "Grundschule Heidberg", "school:de": "Grundschule", "wikidata": "Q133931608", "osm_id": 276356328, "tile_500": "NO_E565000_N5951000_500", "tile_250": "NO_E565250_N5951250_250", "shop": "", "public_transport": "", "railway": ""}}, {"type": "Feature", "geometry": {"type": "LineString", "coordinates": [[566239.4716011189, 5951156.553300659], [566250.9124069054, 5951155.212652375], [566252.3741319336, 5951167.651253496], [566241.8084405663, 5951168.269856465], [566239.4716011189, 5951156.553300659]]}, "properties": {"addr:city": "Norderstedt", "addr:housenumber": "21", "addr:postcode": "22844", "addr:street": "Alter Kirchenweg", "amenity": "fuel", "brand": "Nordoel", "brand:wikidata": "Q1759888", "building": "yes", "compressed_air": "yes", "fuel:diesel": "yes", "fuel:e10": "yes", "fuel:octane_95": "yes", "fuel:octane_98": "yes", "name": "Nordoel", "opening_hours": "Mo-Fr 06:00-22:00; Sa 07:00-22:00; Su 08:00-22:00", "operator": "Holger Kriese", "shop": "kiosk", "website": "http://www.nordoel-norderstedt.de/", "wheelchair": "yes", "osm_id": 319268568, "tile_500": "NO_E566000_N5951000_500", "tile_250": "NO_E566000_N5951000_250", "public_transport": "", "railway": ""}}, {"type": "Feature", "geometry": {"type": "LineString", "coordinates": [[565598.6286078828, 5952239.427248258], [565694.2896560687, 5952184.952073042], [565655.2826744328, 5952138.483992574], [565615.3263860609, 5952159.823203105], [565601.6183232678, 5952127.128943397], [565548.7604075086, 5952159.604646666], [565598.6286078828, 5952239.427248258]]}, "properties": {"amenity": "school", "name": "Schule am Hasenstieg", "old_name": "Moorbek-Schule", "wikidata": "Q133931777", "osm_id": 502916150, "tile_500": "NO_E565500_N5952000_500", "tile_250": "NO_E565500_N5952000_250", "shop": "", "public_transport": "", "railway": ""}}, {"type": "Feature", "geometry": {"type": "LineString", "coordinates": [[566700.4289024719, 5950618.32778195], [566622.367411206, 5950662.784910006], [566633.6508562503, 5950685.177287463], [566597.5673931376, 5950701.355905487], [566614.6996416886, 5950735.937656681], [566722.5048207961, 5950682.968061214], [566711.9497207499, 5950618.491538996]]}, "properties": {"addr:city": "Norderstedt", "addr:country": "DE", "addr:housenumber": "24", "addr:postcode": "22844", "addr:street": "Am Exerzierplatz", "amenity": "school", "name": "F\u00f6rderzentrum Erich-K\u00e4stner-Schule", "wheelchair": "yes", "wikidata": "Q133931775", "osm_id": 1124247292, "tile_500": "NO_E566500_N5950500_500", "tile_250": "NO_E566500_N5950500_250", "shop": "", "public_transport": "", "railway": ""}}, {"type": "Feature", "geometry": {"type": "LineString", "coordinates": [[566373.8402930929, 5950783.142481949], [566482.404566836, 5950724.7814911045], [566511.3435554145, 5950818.515486448], [566503.1902322519, 5950932.120060527], [566479.7455617646, 5950972.591350528], [566454.7680202398, 5950955.824910593], [566373.8402930929, 5950783.142481949]]}, "properties": {"addr:city": "Norderstedt", "addr:housenumber": "30", "addr:postcode": "22844", "addr:street": "Fadens Tannen", "amenity": "school", "name": "Gemeinschaftsschule Harksheide", "school:de": "Gemeinschaftsschule", "website": "https://www.gemsharksheide.de/", "wheelchair": "limited", "osm_id": 1124247293, "tile_500": "NO_E566000_N5950500_500", "tile_250": "NO_E566250_N5950750_250", "shop": "", "public_transport": "", "railway": ""}}, {"type": "Feature", "geometry": {"type": "LineString", "coordinates": [[566629.6352947676, 5950744.77328714], [566655.2732459765, 5950773.656436738], [566700.7950837101, 5950750.279571762], [566711.0639294088, 5950767.828515369], [566727.0994368424, 5950760.5901324265], [566721.2392645681, 5950724.610388228], [566704.0684192862, 5950732.745087524], [566689.9242888009, 5950702.600711374], [566621.2268083724, 5950736.152714176], [566629.6352947676, 5950744.77328714]]}, "properties": {"addr:city": "Norderstedt", "addr:housenumber": "20", "addr:postcode": "22844", "addr:street": "Am Exerzierplatz", "amenity": "school", "building": "school", "name": "Gemeinschaftsschule Harksheide", "website": "https://www.gemsharksheide.de/", "osm_id": 1349933557, "tile_500": "NO_E566500_N5950500_500", "tile_250": "NO_E566500_N5950500_250", "shop": "", "public_transport": "", "railway": ""}}, {"type": "Feature", "geometry": {"type": "LineString", "coordinates": [[566542.7149354556, 5951165.71773], [566611.8328045912, 5951164.395114533], [566611.5805988762, 5951152.3963859975], [566542.4360680952, 5951152.327728275], [566542.7149354556, 5951165.71773]]}, "properties": {"building": "yes", "shop": "mall", "osm_id": 1354216763, "tile_500": "NO_E566500_N5951000_500", "tile_250": "NO_E566500_N5951000_250", "name": "", "amenity": "", "public_transport": "", "railway": ""}}]}