{"type": "FeatureCollection", "features": [{"type": "Feature", "geometry": {"type": "LineString", "coordinates": [[565498.5515035039, 5951519.6801892305], [565503.6351241653, 5951436.909356958], [565507.5995529803, 5951437.142742919], [565502.53597429, 5951519.891597889], [565500.2512495096, 5951555.867236062], [565504.3076720593, 5951556.12416014], [565511.6629893043, 5951437.3775147], [565512.1245840212, 5951429.850863873], [565512.6126611545, 5951421.846114497], [565508.5493667203, 5951421.600216994], [565506.6100493296, 5951421.484122268], [565504.545476837, 5951421.355152403], [565500.5217849737, 5951421.1098147845], [565500.0172658107, 5951429.348006048], [565499.5716871831, 5951436.674592135], [565493.9648424113, 5951519.571649172], [565492.3090807482, 5951555.422544077], [565496.3392578593, 5951555.667967698], [565498.5515035039, 5951519.6801892305]]}, "properties": {"access": "customers", "area": "yes", "bench": "yes", "bin": "yes", "customers": "HVV", "foot": "yes", "level": "-1", "lit": "yes", "public_transport": "platform", "railway": "platform", "ref:IFOPT": "de:01060:36961:1:369000;de:01060:36961:1:369001;de:01060:36961:1:8079027", "shelter": "yes", "subway": "yes", "surface": "tiles", "tactile_paving": "yes", "train": "yes", "wheelchair": "yes", "osm_id": 59761755, "tile_500": "NO_E565500_N5951000_500", "tile_250": "NO_E565500_N5951250_250"}}, {"type": "Feature", "geometry": {"type": "LineString", "coordinates": [[565537.896834251, 5950601.94898798], [565540.1906319369, 5950618.10427649], [565546.4929883266, 5950715.2656532535], [565539.7720324115, 5950872.643399617], [565538.8863749445, 5950903.909490694], [565538.3689025918, 5950922.050670079], [565537.2991472756, 5950978.316934748], [565537.7528172826, 5951012.016331948], [565533.5368217253, 5951102.098634585]]}, "properties": {"electrified": "rail", "frequency": "0", "gauge": "1435", "maxspeed": "80", "network": "HVV", "railway": "subway", "voltage": "750", "osm_id": 152354502, "tile_500": "NO_E565500_N5950500_500", "tile_250": "NO_E565500_N5950750_250"}}, {"type": "Feature", "geometry": {"type": "LineString", "coordinates": [[565533.5368217253, 5951102.098634585], [565531.0366361777, 5951142.132650999], [565527.4428890235, 5951203.270766235], [565521.0560060439, 5951319.760940421], [565518.2679895479, 5951370.9626340065], [565518.1266522533, 5951372.574100316]]}, "properties": {"electrified": "rail", "frequency": "0", "gauge": "1435", "layer": "-1", "level": "-1", "network": "HVV", "railway": "subway", "tunnel": "yes", "voltage": "750", "osm_id": 152354880, "tile_500": "NO_E565500_N5951000_500", "tile_250": "NO_E565500_N5951000_250"}}, {"type": "Feature", "geometry": {"type": "LineString", "coordinates": [[565521.5056287326, 5951097.502005104], [565524.6878467366, 5951050.70106692], [565532.2313687025, 5950923.266832077], [565533.6845718762, 5950903.836842048], [565534.2841535964, 5950895.889292629], [565535.3854193981, 5950872.348464922], [565542.0611214306, 5950729.546665941], [565542.1010033675, 5950701.161832483], [565535.6512419484, 5950618.3301896695], [565533.3135189831, 5950601.884984178]]}, "properties": {"electrified": "rail", "frequency": "0", "gauge": "1435", "maxspeed": "80", "network": "HVV", "railway": "subway", "voltage": "750", "osm_id": 152354881, "tile_500": "NO_E565500_N5950500_500", "tile_250": "NO_E565500_N5950750_250"}}, {"type": "Feature", "geometry": {"type": "LineString", "coordinates": [[565495.1976465926, 5951478.551843527], [565495.3189397219, 5951476.483882584], [565497.9433777172, 5951432.723968258], [565498.1296684219, 5951430.256336668], [565502.6489903745, 5951372.302354817]]}, "properties": {"electrified": "rail", "frequency": "0", "gauge": "1435", "layer": "-1", "level": "-1", "network": "HVV", "railway": "subway", "railway:track_ref": "1", "voltage": "750", "osm_id": 152354882, "tile_500": "NO_E565000_N5951000_500", "tile_250": "NO_E565250_N5951250_250"}}, {"type": "Feature", "geometry": {"type": "LineString", "coordinates": [[565530.0538039213, 5951014.423546902], [565529.9172396462, 5951024.2024193555], [565525.6008833448, 5951099.261648857]]}, "properties": {"electrified": "rail", "frequency": "0", "gauge": "1435", "railway": "subway", "service": "crossover", "voltage": "750", "osm_id": 305530323, "tile_500": "NO_E565500_N5951000_500", "tile_250": "NO_E565500_N5951000_250"}}, {"type": "Feature", "geometry": {"type": "LineString", "coordinates": [[565529.0611609534, 5951091.176011909], [565528.584064367, 5951100.28249974]]}, "properties": {"electrified": "rail", "frequency": "0", "gauge": "1435", "layer": "-1", "railway": "subway", "service": "crossover", "voltage": "750", "osm_id": 318685857, "tile_500": "NO_E565500_N5951000_500", "tile_250": "NO_E565500_N5951000_250"}}, {"type": "Feature", "geometry": {"type": "LineString", "coordinates": [[565525.6008833448, 5951099.261648857], [565515.8220636398, 5951230.770632988], [565512.1611005143, 5951271.678628255]]}, "properties": {"electrified": "rail", "frequency": "0", "gauge": "1435", "layer": "-1", "name": "U1", "railway": "subway", "service": "crossover", "tunnel": "yes", "voltage": "750", "osm_id": 318685858, "tile_500": "NO_E565500_N5951000_500", "tile_250": "NO_E565500_N5951000_250"}}, {"type": "Feature", "geometry": {"type": "LineString", "coordinates": [[565494.6280235138, 5951611.569259186], [565495.696354938, 5951592.734738785], [565495.8351964612, 5951590.355461627], [565498.5922474493, 5951541.823834603], [565502.8787227826, 5951478.792603174]]}, "properties": {"electrified": "no", "gauge": "1435", "layer": "-1", "level": "-1", "network": "HVV", "operator": "AKN Eisenbahn GmbH", "passenger_lines": "1", "railway": "rail", "railway:pzb": "yes", "ref": "9122", "usage": "branch", "osm_id": 332582157, "tile_500": "NO_E565000_N5951500_500", "tile_250": "NO_E565250_N5951500_250"}}, {"type": "Feature", "geometry": {"type": "LineString", "coordinates": [[565518.1266522533, 5951372.574100316], [565510.6904857937, 5951479.602686086]]}, "properties": {"electrified": "rail", "frequency": "0", "gauge": "1435", "layer": "-1", "level": "-1", "network": "HVV", "railway": "subway", "railway:track_ref": "2", "voltage": "750", "osm_id": 334686275, "tile_500": "NO_E565500_N5951000_500", "tile_250": "NO_E565500_N5951250_250"}}, {"type": "Feature", "geometry": {"type": "LineString", "coordinates": [[565502.6489903745, 5951372.302354817], [565502.7890025036, 5951370.312545823], [565502.8976421041, 5951368.678368329], [565504.9840251728, 5951325.634216985], [565507.0429267045, 5951297.800526868], [565514.1606577348, 5951201.761158388], [565517.9321298545, 5951148.2142472435]]}, "properties": {"electrified": "rail", "frequency": "0", "gauge": "1435", "layer": "-1", "level": "-1", "network": "HVV", "railway": "subway", "tunnel": "yes", "voltage": "750", "osm_id": 334686276, "tile_500": "NO_E565500_N5951000_500", "tile_250": "NO_E565500_N5951250_250"}}, {"type": "Feature", "geometry": {"type": "LineString", "coordinates": [[565457.8165475943, 5952269.90691069], [565461.6062937687, 5952188.731353511], [565463.6353576984, 5952140.30078761], [565464.4323984764, 5952123.86593498], [565469.7780818156, 5952013.269590969], [565470.0851536068, 5952006.875747642], [565470.7072959632, 5951993.988028195], [565471.3365085855, 5951982.958646872], [565477.6394621691, 5951872.843031318], [565483.4315473542, 5951777.586215109]]}, "properties": {"electrified": "no", "gauge": "1435", "maxspeed": "60", "network": "HVV", "operator": "AKN Eisenbahn GmbH", "passenger_lines": "1", "railway": "rail", "railway:pzb": "yes", "ref": "9122", "usage": "branch", "osm_id": 338475097, "tile_500": "NO_E565000_N5952000_500", "tile_250": "NO_E565250_N5952000_250"}}, {"type": "Feature", "geometry": {"type": "LineString", "coordinates": [[565528.584064367, 5951100.28249974], [565526.2400810947, 5951142.844566458], [565520.3390359327, 5951231.634862739], [565516.8665069081, 5951271.811093326]]}, "properties": {"electrified": "rail", "frequency": "0", "gauge": "1435", "layer": "-1", "name": "U1", "railway": "subway", "service": "crossover", "tunnel": "yes", "voltage": "750", "osm_id": 364121031, "tile_500": "NO_E565500_N5951000_500", "tile_250": "NO_E565500_N5951000_250"}}, {"type": "Feature", "geometry": {"type": "LineString", "coordinates": [[565483.4315473542, 5951777.586215109], [565486.2784235622, 5951735.376062053], [565493.16228332, 5951633.335806654], [565494.6280235138, 5951611.569259186]]}, "properties": {"electrified": "no", "gauge": "1435", "layer": "-1", "network": "HVV", "operator": "AKN Eisenbahn GmbH", "passenger_lines": "1", "railway": "rail", "railway:pzb": "yes", "ref": "9122", "usage": "branch", "osm_id": 454292955, "tile_500": "NO_E565000_N5951500_500", "tile_250": "NO_E565250_N5951500_250"}}, {"type": "Feature", "geometry": {"type": "LineString", "coordinates": [[565504.9840251728, 5951325.634216985], [565512.1611005143, 5951271.678628255], [565516.8206883525, 5951245.305533863], [565520.3390359327, 5951231.634862739], [565527.4428890235, 5951203.270766235]]}, "properties": {"electrified": "rail", "frequency": "0", "gauge": "1435", "layer": "-1", "name": "U1", "railway": "subway", "service": "crossover", "tunnel": "yes", "voltage": "750", "osm_id": 458498401, "tile_500": "NO_E565500_N5951000_500", "tile_250": "NO_E565500_N5951250_250"}}, {"type": "Feature", "geometry": {"type": "LineString", "coordinates": [[565514.1606577348, 5951201.761158388], [565515.8220636398, 5951230.770632988], [565516.8206883525, 5951245.305533863], [565516.8665069081, 5951271.811093326], [565521.0560060439, 5951319.760940421]]}, "properties": {"electrified": "rail", "frequency": "0", "gauge": "1435", "layer": "-1", "name": "U1", "railway": "subway", "service": "crossover", "tunnel": "yes", "voltage": "750", "osm_id": 458498402, "tile_500": "NO_E565500_N5951000_500", "tile_250": "NO_E565500_N5951250_250"}}, {"type": "Feature", "geometry": {"type": "LineString", "coordinates": [[565502.8787227826, 5951478.792603174], [565505.464940262, 5951439.1937204525]]}, "properties": {"electrified": "no", "gauge": "1435", "layer": "-1", "level": "-1", "network": "HVV", "operator": "AKN Eisenbahn GmbH", "passenger_lines": "1", "railway": "rail", "railway:pzb": "yes", "ref": "9122", "usage": "branch", "osm_id": 653547643, "tile_500": "NO_E565500_N5951000_500", "tile_250": "NO_E565500_N5951250_250"}}, {"type": "Feature", "geometry": {"type": "LineString", "coordinates": [[565510.6904857937, 5951479.602686086], [565508.5115925662, 5951520.286592266], [565502.5203595036, 5951597.136227571], [565502.0085399365, 5951607.78891576]]}, "properties": {"electrified": "rail", "frequency": "0", "gauge": "1435", "layer": "-1", "level": "-1", "network": "HVV", "railway": "subway", "railway:track_ref": "2", "voltage": "750", "osm_id": 653547644, "tile_500": "NO_E565500_N5951500_500", "tile_250": "NO_E565500_N5951500_250"}}, {"type": "Feature", "geometry": {"type": "LineString", "coordinates": [[565487.3385977426, 5951608.351892435], [565488.1637804593, 5951596.056755703], [565488.8395634214, 5951579.330918312], [565492.1888696915, 5951526.200907052], [565492.8155166474, 5951516.306470192], [565494.1971750635, 5951494.416353205], [565494.4937284832, 5951489.724825921], [565495.1976465926, 5951478.551843527]]}, "properties": {"electrified": "rail", "frequency": "0", "gauge": "1435", "layer": "-1", "level": "-1", "network": "HVV", "railway": "subway", "railway:track_ref": "1", "voltage": "750", "osm_id": 653547645, "tile_500": "NO_E565000_N5951500_500", "tile_250": "NO_E565250_N5951500_250"}}, {"type": "Feature", "geometry": {"type": "LineString", "coordinates": [[565517.9321298545, 5951148.2142472435], [565521.5056287326, 5951097.502005104]]}, "properties": {"electrified": "rail", "frequency": "0", "gauge": "1435", "layer": "-1", "level": "-1", "network": "HVV", "railway": "subway", "tunnel": "yes", "voltage": "750", "osm_id": 1446807717, "tile_500": "NO_E565500_N5951000_500", "tile_250": "NO_E565500_N5951000_250"}}]}